"Station Name","VANCOUVER INTL A"
"Province","BRITISH COLUMBIA"
"Latitude","49.19"
"Longitude","-123.18"
"Elevation","4.30"
"Climate Identifier","1108395"
"WMO Identifier","71892"
"TC Identifier","YVR"
"All times are specified in Local Standard Time (LST). Add 1 hour to adjust for Daylight Saving Time where and when it is observed."

"Legend"
"E","Estimated"
"M","Missing"
"NA","Not Available"
"","Partner data that is not subject to review by the National Climate Archives"

"Date/Time","Year","Month","Day","Time","Data Quality","Temp (°C)","Temp Flag","Dew Point Temp (°C)","Dew Point Temp Flag","Rel Hum (%)","Rel Hum Flag","Wind Dir (10s deg)","Wind Dir Flag","Wind Spd (km/h)","Wind Spd Flag","Visibility (km)","Visibility Flag","Stn Press (kPa)","Stn Press Flag","Hmdx","Hmdx Flag","Wind Chill","Wind Chill Flag","Weather"
"2015-01-01 00:00","2015","01","01","00:00","","-2.4","","-4.9","","83","","11","","8","","24.1","","103.07","","","","-6","","NA"
"2015-01-01 01:00","2015","01","01","01:00","","-3.6","","-5.5","","87","","11","","10","","48.3","","103.01","","","","-8","","Clear"
"2015-01-01 02:00","2015","01","01","02:00","","-3.6","","-4.9","","91","","36","","2","","48.3","","102.96","","","","-4","","NA"
"2015-01-01 03:00","2015","01","01","03:00","","-4.2","","-5.6","","90","","9","","5","","48.3","","102.94","","","","-6","","NA"
"2015-01-01 04:00","2015","01","01","04:00","","-4.2","","-5.9","","88","","8","","6","","48.3","","102.88","","","","-7","","Clear"
"2015-01-01 05:00","2015","01","01","05:00","","-3.9","","-5.2","","91","","9","","7","","48.3","","102.82","","","","-7","","NA"
"2015-01-01 06:00","2015","01","01","06:00","","-3.9","","-5.0","","92","","9","","12","","48.3","","102.76","","","","-9","","NA"
"2015-01-01 07:00","2015","01","01","07:00","","-4.3","","-5.7","","90","","9","","11","","40.2","","102.74","","","","-9","","Clear"
"2015-01-01 08:00","2015","01","01","08:00","","-3.5","","-4.9","","90","","9","","9","","48.3","","102.74","","","","-7","","NA"
"2015-01-01 09:00","2015","01","01","09:00","","-2.7","","-4.0","","91","","9","","10","","48.3","","102.75","","","","-7","","NA"
"2015-01-01 10:00","2015","01","01","10:00","","-0.6","","-2.7","","86","","11","","8","","48.3","","102.75","","","","-3","","Mainly Clear"
"2015-01-01 11:00","2015","01","01","11:00","","1.0","","-2.2","","79","","11","","8","","48.3","","102.71","","","","","","NA"
"2015-01-01 12:00","2015","01","01","12:00","","2.1","","-2.2","","73","","12","","4","","48.3","","102.66","","","","","","NA"
"2015-01-01 13:00","2015","01","01","13:00","","2.9","","-1.7","","72","","21","","6","","48.3","","102.59","","","","","","Mostly Cloudy"
"2015-01-01 14:00","2015","01","01","14:00","","2.9","","-1.1","","75","","22","","9","","48.3","","102.52","","","","","","NA"
"2015-01-01 15:00","2015","01","01","15:00","","2.5","","-0.8","","79","","25","","12","","48.3","","102.52","","","","","","NA"
"2015-01-01 16:00","2015","01","01","16:00","","1.4","","-1.0","","84","","25","","6","","48.3","","102.52","","","","","","Mostly Cloudy"
"2015-01-01 17:00","2015","01","01","17:00","","1.2","","-0.3","","90","","36","","3","","48.3","","102.48","","","","","","NA"
"2015-01-01 18:00","2015","01","01","18:00","","0.3","","-1.0","","91","","","","0","","32.2","","102.44","","","","","","NA"
"2015-01-01 19:00","2015","01","01","19:00","","1.1","","-0.4","","90","","12","","4","","32.2","","102.38","","","","","","Mostly Cloudy"
"2015-01-01 20:00","2015","01","01","20:00","","-0.1","","-1.4","","91","","36","","2","","32.2","","102.37","","","","-1","","NA"
"2015-01-01 21:00","2015","01","01","21:00","","1.0","","-0.8","","88","","36","","2","","32.2","","102.34","","","","","","NA"
"2015-01-01 22:00","2015","01","01","22:00","","0.1","","-1.4","","90","","36","","3","","32.2","","102.34","","","","","","Cloudy"
"2015-01-01 23:00","2015","01","01","23:00","","1.5","","-1.6","","80","","11","","10","","32.2","","102.30","","","","","","NA"
"2015-01-02 00:00","2015","01","02","00:00","","0.6","","-1.5","","86","","11","","12","","32.2","","102.23","","","","","","NA"
"2015-01-02 01:00","2015","01","02","01:00","","0.3","","-2.1","","84","","10","","11","","32.2","","102.22","","","","","","Cloudy"
"2015-01-02 02:00","2015","01","02","02:00","","0.6","","-2.0","","83","","11","","10","","32.2","","102.16","","","","","","NA"
"2015-01-02 03:00","2015","01","02","03:00","","0.4","","-2.2","","83","","10","","10","","32.2","","102.12","","","","","","NA"
"2015-01-02 04:00","2015","01","02","04:00","","0.7","","-1.7","","84","","8","","4","","32.2","","102.10","","","","","","Cloudy"
"2015-01-02 05:00","2015","01","02","05:00","","0.8","","-1.6","","84","","6","","5","","32.2","","102.02","","","","","","NA"
"2015-01-02 06:00","2015","01","02","06:00","","1.1","","-1.0","","86","","1","","8","","32.2","","102.02","","","","","","NA"
"2015-01-02 07:00","2015","01","02","07:00","","1.4","","-0.8","","85","","10","","11","","32.2","","101.97","","","","","","Cloudy"
"2015-01-02 08:00","2015","01","02","08:00","","1.8","","-0.6","","84","","12","","8","","24.1","","101.98","","","","","","Rain"
"2015-01-02 09:00","2015","01","02","09:00","","1.9","","-0.2","","86","","8","","11","","24.1","","101.97","","","","","","Rain"
"2015-01-02 10:00","2015","01","02","10:00","","2.5","","0.6","","87","","7","","16","","19.3","","101.97","","","","","","Rain"
"2015-01-02 11:00","2015","01","02","11:00","","2.2","","1.3","","94","","6","","14","","4.8","","101.97","","","","","","Rain,Fog"
"2015-01-02 12:00","2015","01","02","12:00","","2.2","","1.5","","95","","7","","17","","8.1","","101.90","","","","","","Drizzle,Fog"
"2015-01-02 13:00","2015","01","02","13:00","","2.4","","1.7","","95","","7","","13","","6.4","","101.86","","","","","","Rain,Fog"
"2015-01-02 14:00","2015","01","02","14:00","","2.7","","1.8","","94","","7","","13","","19.3","","101.85","","","","","","Rain"
"2015-01-02 15:00","2015","01","02","15:00","","2.5","","1.6","","94","","34","","4","","24.1","","101.89","","","","","","NA"
"2015-01-02 16:00","2015","01","02","16:00","","2.5","","1.8","","95","","36","","5","","24.1","","101.94","","","","","","Cloudy"
"2015-01-02 17:00","2015","01","02","17:00","","2.7","","2.1","","96","","2","","3","","24.1","","101.96","","","","","","NA"
"2015-01-02 18:00","2015","01","02","18:00","","3.3","","2.1","","92","","29","","13","","24.1","","101.98","","","","","","NA"
"2015-01-02 19:00","2015","01","02","19:00","","3.5","","2.2","","91","","33","","10","","24.1","","102.04","","","","","","Cloudy"
"2015-01-02 20:00","2015","01","02","20:00","","2.9","","1.4","","90","","29","","18","","24.1","","102.09","","","","","","NA"
"2015-01-02 21:00","2015","01","02","21:00","","2.5","","1.6","","94","","7","","8","","19.3","","102.16","","","","","","NA"
"2015-01-02 22:00","2015","01","02","22:00","","1.9","","1.2","","95","","10","","10","","19.3","","102.24","","","","","","Cloudy"
"2015-01-02 23:00","2015","01","02","23:00","","1.3","","0.7","","96","","8","","9","","24.1","","102.29","","","","","","NA"
"2015-01-03 00:00","2015","01","03","00:00","","1.2","","0.6","","96","","9","","7","","16.1","","102.33","","","","","","NA"
"2015-01-03 01:00","2015","01","03","01:00","","1.4","","0.8","","96","","9","","13","","12.9","","102.40","","","","","","Cloudy"
"2015-01-03 02:00","2015","01","03","02:00","","1.4","","1.0","","97","","6","","19","","12.9","","102.41","","","","","","NA"
"2015-01-03 03:00","2015","01","03","03:00","","0.9","","0.3","","96","","11","","7","","16.1","","102.43","","","","","","NA"
"2015-01-03 04:00","2015","01","03","04:00","","1.0","","0.4","","96","","27","","6","","19.3","","102.45","","","","","","Cloudy"
"2015-01-03 05:00","2015","01","03","05:00","","1.4","","0.8","","96","","36","","3","","19.3","","102.46","","","","","","NA"
"2015-01-03 06:00","2015","01","03","06:00","","1.3","","0.7","","96","","36","","1","","19.3","","102.45","","","","","","NA"
"2015-01-03 07:00","2015","01","03","07:00","","1.4","","0.8","","96","","32","","6","","16.1","","102.46","","","","","","Cloudy"
"2015-01-03 08:00","2015","01","03","08:00","","1.6","","0.7","","94","","11","","7","","19.3","","102.47","","","","","","NA"
"2015-01-03 09:00","2015","01","03","09:00","","2.0","","1.0","","93","","9","","9","","24.1","","102.56","","","","","","NA"
"2015-01-03 10:00","2015","01","03","10:00","","2.5","","1.5","","93","","9","","10","","24.1","","102.52","","","","","","Cloudy"
"2015-01-03 11:00","2015","01","03","11:00","","3.2","","1.7","","90","","9","","12","","24.1","","102.51","","","","","","NA"
"2015-01-03 12:00","2015","01","03","12:00","","3.6","","1.8","","88","","8","","4","","24.1","","102.53","","","","","","NA"
"2015-01-03 13:00","2015","01","03","13:00","","3.7","","1.6","","86","","7","","12","","24.1","","102.44","","","","","","Cloudy"
"2015-01-03 14:00","2015","01","03","14:00","","3.7","","1.9","","88","","9","","15","","24.1","","102.39","","","","","","NA"
"2015-01-03 15:00","2015","01","03","15:00","","3.6","","1.6","","87","","7","","9","","19.3","","102.46","","","","","","Rain Showers"
"2015-01-03 16:00","2015","01","03","16:00","","3.3","","1.7","","89","","9","","7","","19.3","","102.48","","","","","","Rain Showers"
"2015-01-03 17:00","2015","01","03","17:00","","3.0","","1.8","","92","","8","","9","","12.9","","102.47","","","","","","Rain"
"2015-01-03 18:00","2015","01","03","18:00","","3.4","","1.6","","88","","6","","13","","12.9","","102.39","","","","","","Rain"
"2015-01-03 19:00","2015","01","03","19:00","","3.0","","2.0","","93","","7","","13","","12.9","","102.39","","","","","","Rain"
"2015-01-03 20:00","2015","01","03","20:00","","2.6","","1.6","","93","","7","","18","","12.9","","102.34","","","","","","Rain"
"2015-01-03 21:00","2015","01","03","21:00","","2.4","","1.5","","94","","7","","12","","16.1","","102.37","","","","","","Rain"
"2015-01-03 22:00","2015","01","03","22:00","","2.5","","1.6","","94","","6","","12","","16.1","","102.41","","","","","","Rain"
"2015-01-03 23:00","2015","01","03","23:00","","2.8","","1.9","","94","","6","","13","","16.1","","102.40","","","","","","Rain"
"2015-01-04 00:00","2015","01","04","00:00","","2.6","","1.9","","95","","9","","10","","12.9","","102.38","","","","","","Rain"
"2015-01-04 01:00","2015","01","04","01:00","","2.5","","1.8","","95","","9","","13","","16.1","","102.40","","","","","","Rain"
"2015-01-04 02:00","2015","01","04","02:00","","2.5","","1.8","","95","","9","","17","","19.3","","102.35","","","","","","Rain"
"2015-01-04 03:00","2015","01","04","03:00","","2.6","","1.9","","95","","8","","14","","12.9","","102.39","","","","","","Rain"
"2015-01-04 04:00","2015","01","04","04:00","","2.5","","2.1","","97","","8","","12","","9.7","","102.41","","","","","","Rain,Fog"
"2015-01-04 05:00","2015","01","04","05:00","","2.6","","2.2","","97","","9","","14","","16.1","","102.32","","","","","","Rain"
"2015-01-04 06:00","2015","01","04","06:00","","2.5","","2.1","","97","","10","","22","","16.1","","102.26","","","","","","Rain"
"2015-01-04 07:00","2015","01","04","07:00","","2.5","","1.9","","96","","8","","20","","16.1","","102.25","","","","","","Rain"
"2015-01-04 08:00","2015","01","04","08:00","","2.3","","1.6","","95","","9","","20","","9.7","","102.31","","","","","","Moderate Rain"
"2015-01-04 09:00","2015","01","04","09:00","","2.2","","1.5","","95","","9","","20","","8.1","","102.28","","","","","","Rain,Fog"
"2015-01-04 10:00","2015","01","04","10:00","","2.2","","1.5","","95","","8","","23","","8.1","","102.25","","","","","","Rain,Fog"
"2015-01-04 11:00","2015","01","04","11:00","","1.8","","1.1","","95","","8","","23","","8.1","","102.14","","","","","","Rain,Fog"
"2015-01-04 12:00","2015","01","04","12:00","","2.4","","1.7","","95","","9","","23","","8.1","","101.96","","","","","","Rain,Fog"
"2015-01-04 13:00","2015","01","04","13:00","","2.8","","2.1","","95","","6","","21","","8.1","","101.82","","","","","","Rain,Fog"
"2015-01-04 14:00","2015","01","04","14:00","","3.4","","2.5","","94","","7","","18","","12.9","","101.72","","","","","","Rain"
"2015-01-04 15:00","2015","01","04","15:00","","3.8","","3.1","","95","","8","","13","","6.4","","101.63","","","","","","Rain,Fog"
"2015-01-04 16:00","2015","01","04","16:00","","4.3","","3.9","","97","","7","","21","","4.8","","101.56","","","","","","Rain,Fog"
"2015-01-04 17:00","2015","01","04","17:00","","4.9","","4.3","","96","","6","","19","","4.8","","101.45","","","","","","Moderate Rain,Fog"
"2015-01-04 18:00","2015","01","04","18:00","","5.1","","4.5","","96","","7","","22","","6.4","","101.35","","","","","","Moderate Rain,Fog"
"2015-01-04 19:00","2015","01","04","19:00","","5.5","","4.9","","96","","6","","22","","6.4","","101.22","","","","","","Moderate Rain,Fog"
"2015-01-04 20:00","2015","01","04","20:00","","5.9","","5.2","","95","","6","","22","","9.7","","101.18","","","","","","Moderate Rain,Fog"
"2015-01-04 21:00","2015","01","04","21:00","","6.0","","5.4","","96","","7","","16","","9.7","","101.13","","","","","","Moderate Rain,Fog"
"2015-01-04 22:00","2015","01","04","22:00","","6.4","","5.8","","96","","6","","19","","6.4","","101.14","","","","","","Moderate Rain,Fog"
"2015-01-04 23:00","2015","01","04","23:00","","6.3","","5.7","","96","","6","","17","","6.4","","101.15","","","","","","Moderate Rain,Fog"
"2015-01-05 00:00","2015","01","05","00:00","","6.4","","5.7","","95","","3","","16","","6.4","","101.22","","","","","","Moderate Rain,Fog"
"2015-01-05 01:00","2015","01","05","01:00","","5.4","","5.0","","97","","32","","10","","9.7","","101.35","","","","","","Moderate Rain,Fog"
"2015-01-05 02:00","2015","01","05","02:00","","4.7","","3.8","","94","","30","","27","","12.9","","101.50","","","","","","Rain"
"2015-01-05 03:00","2015","01","05","03:00","","5.4","","4.7","","95","","29","","18","","12.9","","101.61","","","","","","Rain"
"2015-01-05 04:00","2015","01","05","04:00","","5.3","","4.6","","95","","31","","16","","12.9","","101.72","","","","","","Rain"
"2015-01-05 05:00","2015","01","05","05:00","","5.1","","4.5","","96","","32","","12","","19.3","","101.74","","","","","","Rain"
"2015-01-05 06:00","2015","01","05","06:00","","5.3","","4.7","","96","","36","","2","","16.1","","101.84","","","","","","Rain"
"2015-01-05 07:00","2015","01","05","07:00","","5.2","","4.6","","96","","13","","5","","12.9","","101.92","","","","","","Rain"
"2015-01-05 08:00","2015","01","05","08:00","","5.1","","4.7","","97","","9","","11","","6.4","","102.00","","","","","","Rain,Fog"
"2015-01-05 09:00","2015","01","05","09:00","","4.9","","4.6","","98","","9","","10","","4.8","","102.12","","","","","","Rain,Fog"
"2015-01-05 10:00","2015","01","05","10:00","","4.7","","4.3","","97","","10","","11","","6.4","","102.18","","","","","","Rain,Fog"
"2015-01-05 11:00","2015","01","05","11:00","","4.8","","4.4","","97","","8","","12","","6.4","","102.25","","","","","","Moderate Rain,Fog"
"2015-01-05 12:00","2015","01","05","12:00","","5.2","","4.8","","97","","9","","16","","12.9","","102.25","","","","","","NA"
"2015-01-05 13:00","2015","01","05","13:00","","5.6","","4.9","","95","","10","","14","","12.9","","102.30","","","","","","Cloudy"
"2015-01-05 14:00","2015","01","05","14:00","","5.7","","5.1","","96","","9","","18","","6.4","","102.29","","","","","","Drizzle,Fog"
"2015-01-05 15:00","2015","01","05","15:00","","5.8","","5.4","","97","","9","","11","","4.8","","102.31","","","","","","Drizzle,Fog"
"2015-01-05 16:00","2015","01","05","16:00","","6.1","","5.8","","98","","7","","11","","3.2","","102.30","","","","","","Drizzle,Fog"
"2015-01-05 17:00","2015","01","05","17:00","","6.5","","6.2","","98","","9","","15","","12.9","","102.25","","","","","","NA"
"2015-01-05 18:00","2015","01","05","18:00","","7.2","","6.8","","97","","8","","14","","12.9","","102.28","","","","","","Drizzle"
"2015-01-05 19:00","2015","01","05","19:00","","7.6","","7.2","","97","","6","","13","","12.9","","102.28","","","","","","Drizzle"
"2015-01-05 20:00","2015","01","05","20:00","","8.2","","7.8","","97","","10","","14","","16.1","","102.31","","","","","","NA"
"2015-01-05 21:00","2015","01","05","21:00","","8.5","","8.1","","97","","8","","12","","16.1","","102.32","","","","","","NA"
"2015-01-05 22:00","2015","01","05","22:00","","9.2","","8.8","","97","","8","","18","","12.9","","102.33","","","","","","Cloudy"
"2015-01-05 23:00","2015","01","05","23:00","","9.4","","9.0","","97","","10","","18","","12.9","","102.35","","","","","","NA"
"2015-01-06 00:00","2015","01","06","00:00","","9.2","","8.9","","98","","9","","16","","12.9","","102.35","","","","","","NA"
"2015-01-06 01:00","2015","01","06","01:00","","9.6","","9.3","","98","","7","","14","","12.9","","102.40","","","","","","Cloudy"
"2015-01-06 02:00","2015","01","06","02:00","","9.6","","9.3","","98","","8","","15","","12.9","","102.41","","","","","","NA"
"2015-01-06 03:00","2015","01","06","03:00","","10.1","","9.5","","96","","8","","11","","12.9","","102.49","","","","","","NA"
"2015-01-06 04:00","2015","01","06","04:00","","10.2","","9.6","","96","","9","","9","","12.9","","102.51","","","","","","Cloudy"
"2015-01-06 05:00","2015","01","06","05:00","","9.9","","9.3","","96","","9","","17","","12.9","","102.43","","","","","","NA"
"2015-01-06 06:00","2015","01","06","06:00","","9.4","","9.0","","97","","7","","10","","16.1","","102.48","","","","","","NA"
"2015-01-06 07:00","2015","01","06","07:00","","9.8","","9.2","","96","","10","","13","","19.3","","102.50","","","","","","Cloudy"
"2015-01-06 08:00","2015","01","06","08:00","","9.7","","9.1","","96","","7","","15","","24.1","","102.53","","","","","","NA"
"2015-01-06 09:00","2015","01","06","09:00","","9.9","","9.1","","95","","10","","10","","24.1","","102.60","","","","","","NA"
"2015-01-06 10:00","2015","01","06","10:00","","10.5","","9.4","","93","","6","","10","","24.1","","102.64","","","","","","Cloudy"
"2015-01-06 11:00","2015","01","06","11:00","","11.2","","10.0","","92","","10","","7","","24.1","","102.65","","","","","","NA"
"2015-01-06 12:00","2015","01","06","12:00","","10.8","","9.6","","92","","9","","8","","24.1","","102.58","","","","","","NA"
"2015-01-06 13:00","2015","01","06","13:00","","9.4","","8.5","","94","","28","","8","","24.1","","102.51","","","","","","Cloudy"
"2015-01-06 14:00","2015","01","06","14:00","","9.0","","7.8","","92","","29","","10","","32.2","","102.54","","","","","","NA"
"2015-01-06 15:00","2015","01","06","15:00","","8.1","","7.2","","94","","18","","8","","32.2","","102.56","","","","","","NA"
"2015-01-06 16:00","2015","01","06","16:00","","9.3","","8.1","","92","","16","","7","","32.2","","102.58","","","","","","Cloudy"
"2015-01-06 17:00","2015","01","06","17:00","","6.2","","5.8","","97","","30","","4","","32.2","","102.57","","","","","","NA"
"2015-01-06 18:00","2015","01","06","18:00","","6.7","","6.4","","98","","2","","3","","32.2","","102.57","","","","","","NA"
"2015-01-06 19:00","2015","01","06","19:00","","5.8","","5.7","","99","","16","","4","","32.2","","102.59","","","","","","Cloudy"
"2015-01-06 20:00","2015","01","06","20:00","","7.0","","6.9","","99","","11","","7","","32.2","","102.60","","","","","","NA"
"2015-01-06 21:00","2015","01","06","21:00","","5.1","","4.8","","98","","","","0","","0.6","","102.60","","","","","","Fog"
"2015-01-06 22:00","2015","01","06","22:00","","4.2","","4.1","","99","","13","","3","","0.4","","102.59","","","","","","Fog"
"2015-01-06 23:00","2015","01","06","23:00","","4.8","","4.7","","99","","14","","4","","0.6","","102.57","","","","","","Fog"
"2015-01-07 00:00","2015","01","07","00:00","","4.0","","3.9","","99","","6","","4","","0.4","","102.56","","","","","","Fog"
"2015-01-07 01:00","2015","01","07","01:00","","4.7","","4.6","","99","","32","","4","","1.6","","102.58","","","","","","Fog"
"2015-01-07 02:00","2015","01","07","02:00","","4.6","","4.5","","99","","27","","8","","0.2","","102.64","","","","","","Fog"
"2015-01-07 03:00","2015","01","07","03:00","","3.9","","3.8","","99","","32","","8","","24.1","","102.62","","","","","","NA"
"2015-01-07 04:00","2015","01","07","04:00","","5.2","","5.1","","99","","3","","7","","24.1","","102.58","","","","","","Cloudy"
"2015-01-07 05:00","2015","01","07","05:00","","5.3","","5.2","","99","","6","","16","","19.3","","102.63","","","","","","NA"
"2015-01-07 06:00","2015","01","07","06:00","","5.1","","5.0","","99","","10","","5","","19.3","","102.55","","","","","","NA"
"2015-01-07 07:00","2015","01","07","07:00","","5.5","","5.4","","99","","11","","4","","19.3","","102.58","","","","","","Mostly Cloudy"
"2015-01-07 08:00","2015","01","07","08:00","","5.7","","5.6","","99","","30","","6","","0.6","","102.60","","","","","","Fog"
"2015-01-07 09:00","2015","01","07","09:00","","5.7","","5.6","","99","","32","","4","","0.2","","102.71","","","","","","Fog"
"2015-01-07 10:00","2015","01","07","10:00","","6.6","","6.5","","99","","28","","17","","2.8","","102.71","","","","","","Fog"
"2015-01-07 11:00","2015","01","07","11:00","","6.4","","6.3","","99","","29","","14","","0.6","","102.72","","","","","","Fog"
"2015-01-07 12:00","2015","01","07","12:00","","6.8","","6.7","","99","","32","","14","","6.4","","102.68","","","","","","Fog"
"2015-01-07 13:00","2015","01","07","13:00","","7.0","","6.9","","99","","30","","19","","24.1","","102.62","","","","","","Cloudy"
"2015-01-07 14:00","2015","01","07","14:00","","6.9","","6.8","","99","","32","","9","","24.1","","102.56","","","","","","NA"
"2015-01-07 15:00","2015","01","07","15:00","","6.8","","6.7","","99","","29","","15","","24.1","","102.54","","","","","","NA"
"2015-01-07 16:00","2015","01","07","16:00","","6.5","","6.2","","98","","30","","9","","24.1","","102.55","","","","","","Cloudy"
"2015-01-07 17:00","2015","01","07","17:00","","6.1","","5.8","","98","","32","","7","","24.1","","102.53","","","","","","NA"
"2015-01-07 18:00","2015","01","07","18:00","","5.8","","5.5","","98","","21","","7","","4.8","","102.51","","","","","","Fog"
"2015-01-07 19:00","2015","01","07","19:00","","5.6","","5.3","","98","","18","","8","","4.8","","102.52","","","","","","Fog"
"2015-01-07 20:00","2015","01","07","20:00","","5.2","","5.1","","99","","18","","8","","4.8","","102.54","","","","","","Fog"
"2015-01-07 21:00","2015","01","07","21:00","","5.2","","5.1","","99","","32","","8","","2.4","","102.54","","","","","","Fog"
"2015-01-07 22:00","2015","01","07","22:00","","5.1","","5.0","","99","","27","","8","","0.4","","102.58","","","","","","Fog"
"2015-01-07 23:00","2015","01","07","23:00","","4.9","","4.8","","99","","32","","4","","0.6","","102.55","","","","","","Fog"
"2015-01-08 00:00","2015","01","08","00:00","","4.9","","4.8","","99","","27","","8","","1.2","","102.53","","","","","","Fog"
"2015-01-08 01:00","2015","01","08","01:00","","4.7","","4.6","","99","","29","","12","","16.1","","102.50","","","","","","Cloudy"
"2015-01-08 02:00","2015","01","08","02:00","","4.5","","4.4","","99","","30","","10","","1.6","","102.49","","","","","","Fog"
"2015-01-08 03:00","2015","01","08","03:00","","4.5","","4.4","","99","","30","","11","","0.8","","102.46","","","","","","Fog"
"2015-01-08 04:00","2015","01","08","04:00","","4.6","","4.5","","99","","34","","12","","1.6","","102.41","","","","","","Fog"
"2015-01-08 05:00","2015","01","08","05:00","","4.3","","4.2","","99","","28","","5","","2.4","","102.36","","","","","","Fog"
"2015-01-08 06:00","2015","01","08","06:00","","3.9","","3.8","","99","","29","","7","","0.8","","102.32","","","","","","Fog"
"2015-01-08 07:00","2015","01","08","07:00","","3.9","","3.8","","99","","27","","8","","0.8","","102.32","","","","","","Fog"
"2015-01-08 08:00","2015","01","08","08:00","","4.0","","3.9","","99","","33","","7","","2.0","","102.36","","","","","","Fog"
"2015-01-08 09:00","2015","01","08","09:00","","4.1","","4.0","","99","","33","","7","","2.8","","102.36","","","","","","Fog"
"2015-01-08 10:00","2015","01","08","10:00","","4.0","","3.9","","99","","27","","11","","2.4","","102.38","","","","","","Fog"
"2015-01-08 11:00","2015","01","08","11:00","","4.2","","4.1","","99","","31","","9","","1.0","","102.34","","","","","","Fog"
"2015-01-08 12:00","2015","01","08","12:00","","4.6","","4.5","","99","","33","","7","","1.6","","102.26","","","","","","Fog"
"2015-01-08 13:00","2015","01","08","13:00","","4.3","","4.2","","99","","28","","11","","1.6","","102.21","","","","","","Fog"
"2015-01-08 14:00","2015","01","08","14:00","","4.3","","4.2","","99","","32","","9","","0.6","","102.16","","","","","","Fog"
"2015-01-08 15:00","2015","01","08","15:00","","4.4","","4.3","","99","","29","","10","","0.6","","102.14","","","","","","Fog"
"2015-01-08 16:00","2015","01","08","16:00","","4.2","","4.1","","99","","31","","14","","0.6","","102.13","","","","","","Fog"
"2015-01-08 17:00","2015","01","08","17:00","","4.4","","4.3","","99","","29","","14","","0.8","","102.11","","","","","","Fog"
"2015-01-08 18:00","2015","01","08","18:00","","4.4","","4.3","","99","","30","","12","","0.6","","102.05","","","","","","Fog"
"2015-01-08 19:00","2015","01","08","19:00","","4.4","","4.3","","99","","29","","12","","0.4","","102.07","","","","","","Fog"
"2015-01-08 20:00","2015","01","08","20:00","","4.5","","4.4","","99","","30","","10","","0.4","","102.06","","","","","","Fog"
"2015-01-08 21:00","2015","01","08","21:00","","4.3","","4.2","","99","","35","","8","","0.4","","102.05","","","","","","Fog"
"2015-01-08 22:00","2015","01","08","22:00","","3.3","","3.2","","99","","1","","8","","0.4","","102.04","","","","","","Fog"
"2015-01-08 23:00","2015","01","08","23:00","","3.2","","3.1","","99","","36","","4","","0.2","","102.05","","","","","","Fog"
"2015-01-09 00:00","2015","01","09","00:00","","3.5","","3.4","","99","","36","","4","","0.2","","102.04","","","","","","Fog"
"2015-01-09 01:00","2015","01","09","01:00","","4.2","","4.1","","99","","27","","8","","0.0","","102.05","","","","","","Fog"
"2015-01-09 02:00","2015","01","09","02:00","","4.1","","4.0","","99","","34","","6","","0.2","","102.03","","","","","","Fog"
"2015-01-09 03:00","2015","01","09","03:00","","3.8","","3.7","","99","","29","","9","","0.2","","102.03","","","","","","Fog"
"2015-01-09 04:00","2015","01","09","04:00","","3.6","","3.5","","99","","36","","1","","0.2","","101.99","","","","","","Fog"
"2015-01-09 05:00","2015","01","09","05:00","","3.0","","2.9","","99","","36","","4","","0.2","","101.94","","","","","","Fog"
"2015-01-09 06:00","2015","01","09","06:00","","2.3","","2.2","","99","","17","","7","","32.2","","101.91","","","","","","NA"
"2015-01-09 07:00","2015","01","09","07:00","","3.1","","3.0","","99","","18","","9","","32.2","","101.87","","","","","","Mostly Cloudy"
"2015-01-09 08:00","2015","01","09","08:00","","2.7","","2.6","","99","","13","","5","","32.2","","101.89","","","","","","NA"
"2015-01-09 09:00","2015","01","09","09:00","","3.1","","3.0","","99","","36","","2","","32.2","","101.94","","","","","","NA"
"2015-01-09 10:00","2015","01","09","10:00","","4.1","","4.0","","99","","14","","5","","32.2","","101.93","","","","","","Cloudy"
"2015-01-09 11:00","2015","01","09","11:00","","5.2","","5.1","","99","","11","","7","","48.3","","101.90","","","","","","NA"
"2015-01-09 12:00","2015","01","09","12:00","","6.0","","5.1","","94","","9","","11","","48.3","","101.82","","","","","","NA"
"2015-01-09 13:00","2015","01","09","13:00","","7.9","","5.4","","84","","11","","4","","48.3","","101.79","","","","","","Mostly Cloudy"
"2015-01-09 14:00","2015","01","09","14:00","","7.8","","4.9","","82","","16","","4","","48.3","","101.73","","","","","","NA"
"2015-01-09 15:00","2015","01","09","15:00","","6.3","","4.8","","90","","25","","3","","48.3","","101.73","","","","","","NA"
"2015-01-09 16:00","2015","01","09","16:00","","6.4","","4.9","","90","","36","","2","","48.3","","101.69","","","","","","Cloudy"
"2015-01-09 17:00","2015","01","09","17:00","","6.2","","4.5","","89","","36","","1","","32.2","","101.67","","","","","","NA"
"2015-01-09 18:00","2015","01","09","18:00","","6.0","","5.0","","93","","28","","11","","32.2","","101.68","","","","","","NA"
"2015-01-09 19:00","2015","01","09","19:00","","6.4","","5.5","","94","","27","","12","","32.2","","101.65","","","","","","Rain Showers"
"2015-01-09 20:00","2015","01","09","20:00","","6.1","","5.4","","95","","30","","10","","32.2","","101.66","","","","","","Rain Showers"
"2015-01-09 21:00","2015","01","09","21:00","","6.0","","5.3","","95","","26","","8","","32.2","","101.66","","","","","","Rain Showers"
"2015-01-09 22:00","2015","01","09","22:00","","6.2","","5.5","","95","","31","","11","","32.2","","101.67","","","","","","Cloudy"
"2015-01-09 23:00","2015","01","09","23:00","","5.9","","5.5","","97","","32","","12","","19.3","","101.67","","","","","","Rain Showers"
"2015-01-10 00:00","2015","01","10","00:00","","5.9","","5.5","","97","","29","","3","","24.1","","101.63","","","","","","Rain Showers"
"2015-01-10 01:00","2015","01","10","01:00","","5.9","","5.6","","98","","36","","3","","24.1","","101.63","","","","","","Cloudy"
"2015-01-10 02:00","2015","01","10","02:00","","5.9","","5.5","","97","","28","","8","","24.1","","101.63","","","","","","Rain Showers"
"2015-01-10 03:00","2015","01","10","03:00","","5.9","","5.6","","98","","29","","8","","19.3","","101.65","","","","","","Rain"
"2015-01-10 04:00","2015","01","10","04:00","","6.0","","5.7","","98","","32","","11","","12.9","","101.63","","","","","","Rain"
"2015-01-10 05:00","2015","01","10","05:00","","5.9","","5.8","","99","","32","","8","","12.9","","101.59","","","","","","Drizzle"
"2015-01-10 06:00","2015","01","10","06:00","","5.9","","5.8","","99","","9","","8","","4.8","","101.57","","","","","","Drizzle,Fog"
"2015-01-10 07:00","2015","01","10","07:00","","5.7","","5.6","","99","","1","","8","","2.4","","101.61","","","","","","Drizzle,Fog"
"2015-01-10 08:00","2015","01","10","08:00","","5.5","","5.4","","99","","10","","8","","3.2","","101.63","","","","","","Drizzle,Fog"
"2015-01-10 09:00","2015","01","10","09:00","","5.8","","5.7","","99","","10","","8","","8.1","","101.66","","","","","","Fog"
"2015-01-10 10:00","2015","01","10","10:00","","6.1","","5.7","","97","","11","","3","","12.9","","101.70","","","","","","Cloudy"
"2015-01-10 11:00","2015","01","10","11:00","","6.6","","5.4","","92","","11","","5","","12.9","","101.68","","","","","","NA"
"2015-01-10 12:00","2015","01","10","12:00","","6.7","","5.0","","89","","36","","3","","12.9","","101.66","","","","","","NA"
"2015-01-10 13:00","2015","01","10","13:00","","6.2","","5.0","","92","","23","","6","","12.9","","101.64","","","","","","Cloudy"
"2015-01-10 14:00","2015","01","10","14:00","","6.5","","5.9","","96","","29","","6","","9.7","","101.63","","","","","","Fog"
"2015-01-10 15:00","2015","01","10","15:00","","6.4","","6.0","","97","","32","","3","","8.1","","101.63","","","","","","Fog"
"2015-01-10 16:00","2015","01","10","16:00","","6.5","","6.2","","98","","29","","4","","1.2","","101.65","","","","","","Fog"
"2015-01-10 17:00","2015","01","10","17:00","","6.3","","6.0","","98","","27","","7","","1.6","","101.67","","","","","","Fog"
"2015-01-10 18:00","2015","01","10","18:00","","6.3","","6.0","","98","","30","","5","","8.1","","101.71","","","","","","Fog"
"2015-01-10 19:00","2015","01","10","19:00","","6.4","","6.1","","98","","29","","4","","8.1","","101.72","","","","","","Fog"
"2015-01-10 20:00","2015","01","10","20:00","","6.2","","5.9","","98","","27","","5","","8.1","","101.74","","","","","","Fog"
"2015-01-10 21:00","2015","01","10","21:00","","6.1","","5.8","","98","","27","","5","","6.4","","101.78","","","","","","Fog"
"2015-01-10 22:00","2015","01","10","22:00","","6.4","","6.1","","98","","36","","3","","6.4","","101.80","","","","","","Fog"
"2015-01-10 23:00","2015","01","10","23:00","","6.2","","5.9","","98","","36","","2","","6.4","","101.83","","","","","","Fog"
"2015-01-11 00:00","2015","01","11","00:00","","6.1","","5.8","","98","","23","","5","","8.1","","101.84","","","","","","Fog"
"2015-01-11 01:00","2015","01","11","01:00","","6.2","","5.9","","98","","18","","7","","4.8","","101.84","","","","","","Fog"
"2015-01-11 02:00","2015","01","11","02:00","","6.1","","6.0","","99","","23","","5","","4.8","","101.87","","","","","","Fog"
"2015-01-11 03:00","2015","01","11","03:00","","6.1","","6.0","","99","","23","","11","","1.2","","101.90","","","","","","Fog"
"2015-01-11 04:00","2015","01","11","04:00","","5.9","","5.8","","99","","23","","5","","1.2","","101.91","","","","","","Fog"
"2015-01-11 05:00","2015","01","11","05:00","","6.0","","5.9","","99","","36","","4","","1.2","","101.88","","","","","","Drizzle,Fog"
"2015-01-11 06:00","2015","01","11","06:00","","6.1","","6.0","","99","","36","","4","","1.2","","101.89","","","","","","Drizzle,Fog"
"2015-01-11 07:00","2015","01","11","07:00","","6.0","","5.9","","99","","30","","3","","1.2","","101.91","","","","","","Fog"
"2015-01-11 08:00","2015","01","11","08:00","","6.1","","6.0","","99","","36","","5","","2.4","","101.94","","","","","","Fog"
"2015-01-11 09:00","2015","01","11","09:00","","6.2","","6.1","","99","","","","0","","4.8","","102.02","","","","","","Drizzle,Fog"
"2015-01-11 10:00","2015","01","11","10:00","","6.5","","6.4","","99","","36","","2","","4.8","","102.09","","","","","","Fog"
"2015-01-11 11:00","2015","01","11","11:00","","6.6","","6.5","","99","","19","","4","","4.0","","102.11","","","","","","Fog"
"2015-01-11 12:00","2015","01","11","12:00","","6.9","","6.8","","99","","36","","3","","4.8","","102.08","","","","","","Fog"
"2015-01-11 13:00","2015","01","11","13:00","","6.6","","6.5","","99","","25","","3","","6.4","","102.08","","","","","","Fog"
"2015-01-11 14:00","2015","01","11","14:00","","7.1","","7.0","","99","","36","","3","","4.8","","102.07","","","","","","Drizzle,Fog"
"2015-01-11 15:00","2015","01","11","15:00","","7.2","","6.8","","97","","29","","4","","8.1","","102.09","","","","","","Fog"
"2015-01-11 16:00","2015","01","11","16:00","","6.9","","6.3","","96","","23","","3","","9.7","","102.12","","","","","","Fog"
"2015-01-11 17:00","2015","01","11","17:00","","6.6","","6.2","","97","","28","","5","","12.9","","102.14","","","","","","NA"
"2015-01-11 18:00","2015","01","11","18:00","","6.4","","6.0","","97","","30","","9","","12.9","","102.19","","","","","","Rain"
"2015-01-11 19:00","2015","01","11","19:00","","6.5","","6.1","","97","","31","","10","","12.9","","102.23","","","","","","Cloudy"
"2015-01-11 20:00","2015","01","11","20:00","","6.4","","6.1","","98","","31","","8","","12.9","","102.26","","","","","","Drizzle"
"2015-01-11 21:00","2015","01","11","21:00","","6.2","","5.9","","98","","28","","5","","16.1","","102.30","","","","","","NA"
"2015-01-11 22:00","2015","01","11","22:00","","6.1","","5.7","","97","","36","","2","","12.9","","102.34","","","","","","Drizzle"
"2015-01-11 23:00","2015","01","11","23:00","","6.8","","6.5","","98","","36","","2","","12.9","","102.39","","","","","","NA"
"2015-01-12 00:00","2015","01","12","00:00","","6.5","","6.1","","97","","29","","8","","12.9","","102.42","","","","","","NA"
"2015-01-12 01:00","2015","01","12","01:00","","6.6","","6.2","","97","","28","","9","","19.3","","102.47","","","","","","Cloudy"
"2015-01-12 02:00","2015","01","12","02:00","","6.6","","6.0","","96","","36","","3","","16.1","","102.48","","","","","","NA"
"2015-01-12 03:00","2015","01","12","03:00","","6.0","","5.6","","97","","22","","5","","19.3","","102.53","","","","","","NA"
"2015-01-12 04:00","2015","01","12","04:00","","6.4","","6.0","","97","","36","","2","","12.9","","102.53","","","","","","Cloudy"
"2015-01-12 05:00","2015","01","12","05:00","","6.6","","6.2","","97","","5","","5","","12.9","","102.55","","","","","","NA"
"2015-01-12 06:00","2015","01","12","06:00","","6.2","","5.9","","98","","36","","2","","12.9","","102.56","","","","","","NA"
"2015-01-12 07:00","2015","01","12","07:00","","6.2","","5.9","","98","","15","","5","","8.1","","102.59","","","","","","Fog"
"2015-01-12 08:00","2015","01","12","08:00","","6.3","","6.0","","98","","36","","2","","4.8","","102.65","","","","","","Fog"
"2015-01-12 09:00","2015","01","12","09:00","","6.5","","6.1","","97","","28","","5","","6.4","","102.76","","","","","","Fog"
"2015-01-12 10:00","2015","01","12","10:00","","7.0","","6.6","","97","","29","","3","","6.4","","102.81","","","","","","Fog"
"2015-01-12 11:00","2015","01","12","11:00","","7.1","","6.7","","97","","28","","3","","4.8","","102.83","","","","","","Fog"
"2015-01-12 12:00","2015","01","12","12:00","","8.0","","6.6","","91","","14","","3","","6.4","","102.79","","","","","","Fog"
"2015-01-12 13:00","2015","01","12","13:00","","7.9","","7.0","","94","","30","","6","","6.4","","102.81","","","","","","Fog"
"2015-01-12 14:00","2015","01","12","14:00","","7.4","","5.7","","89","","30","","13","","16.1","","102.81","","","","","","NA"
"2015-01-12 15:00","2015","01","12","15:00","","7.3","","6.4","","94","","30","","8","","24.1","","102.83","","","","","","NA"
"2015-01-12 16:00","2015","01","12","16:00","","6.8","","6.1","","95","","27","","9","","24.1","","102.85","","","","","","Mostly Cloudy"
"2015-01-12 17:00","2015","01","12","17:00","","5.6","","5.2","","97","","28","","8","","24.1","","102.89","","","","","","NA"
"2015-01-12 18:00","2015","01","12","18:00","","4.1","","3.8","","98","","27","","9","","24.1","","102.93","","","","","","NA"
"2015-01-12 19:00","2015","01","12","19:00","","3.9","","3.8","","99","","27","","8","","3.2","","102.94","","","","","","Fog"
"2015-01-12 20:00","2015","01","12","20:00","","3.6","","3.5","","99","","27","","4","","3.2","","102.97","","","","","","Fog"
"2015-01-12 21:00","2015","01","12","21:00","","3.3","","3.2","","99","","14","","4","","0.2","","102.98","","","","","","Fog"
"2015-01-12 22:00","2015","01","12","22:00","","4.1","","4.0","","99","","18","","8","","24.1","","103.05","","","","","","Cloudy"
"2015-01-12 23:00","2015","01","12","23:00","","4.7","","4.6","","99","","21","","7","","3.2","","103.13","","","","","","Fog"
"2015-01-13 00:00","2015","01","13","00:00","","5.1","","5.0","","99","","33","","5","","24.1","","103.12","","","","","","NA"
"2015-01-13 01:00","2015","01","13","01:00","","4.7","","4.6","","99","","27","","4","","24.1","","103.13","","","","","","Cloudy"
"2015-01-13 02:00","2015","01","13","02:00","","4.9","","4.8","","99","","4","","4","","24.1","","103.13","","","","","","NA"
"2015-01-13 03:00","2015","01","13","03:00","","4.9","","4.8","","99","","35","","4","","24.1","","103.19","","","","","","NA"
"2015-01-13 04:00","2015","01","13","04:00","","4.8","","4.7","","99","","8","","4","","24.1","","103.20","","","","","","Mostly Cloudy"
"2015-01-13 05:00","2015","01","13","05:00","","3.8","","3.7","","99","","15","","7","","19.3","","103.17","","","","","","NA"
"2015-01-13 06:00","2015","01","13","06:00","","4.6","","4.5","","99","","12","","4","","16.1","","103.16","","","","","","NA"
"2015-01-13 07:00","2015","01","13","07:00","","4.7","","4.6","","99","","11","","6","","9.7","","103.18","","","","","","Fog"
"2015-01-13 08:00","2015","01","13","08:00","","4.3","","4.2","","99","","9","","8","","1.2","","103.21","","","","","","Fog"
"2015-01-13 09:00","2015","01","13","09:00","","4.6","","4.5","","99","","5","","4","","0.6","","103.25","","","","","","Fog"
"2015-01-13 10:00","2015","01","13","10:00","","4.4","","4.3","","99","","13","","5","","1.2","","103.24","","","","","","Fog"
"2015-01-13 11:00","2015","01","13","11:00","","4.3","","4.2","","99","","18","","9","","2.4","","103.25","","","","","","Fog"
"2015-01-13 12:00","2015","01","13","12:00","","3.8","","3.7","","99","","22","","7","","0.8","","103.17","","","","","","Fog"
"2015-01-13 13:00","2015","01","13","13:00","","3.7","","3.6","","99","","23","","8","","0.6","","103.13","","","","","","Fog"
"2015-01-13 14:00","2015","01","13","14:00","","4.2","","4.1","","99","","23","","8","","0.6","","103.10","","","","","","Fog"
"2015-01-13 15:00","2015","01","13","15:00","","4.3","","4.2","","99","","23","","8","","0.6","","103.06","","","","","","Fog"
"2015-01-13 16:00","2015","01","13","16:00","","3.5","","3.4","","99","","36","","2","","32.2","","103.03","","","","","","Mainly Clear"
"2015-01-13 17:00","2015","01","13","17:00","","4.2","","4.1","","99","","26","","4","","32.2","","102.97","","","","","","NA"
"2015-01-13 18:00","2015","01","13","18:00","","3.7","","3.6","","99","","33","","3","","32.2","","102.90","","","","","","NA"
"2015-01-13 19:00","2015","01","13","19:00","","3.9","","3.8","","99","","32","","3","","32.2","","102.87","","","","","","Mainly Clear"
"2015-01-13 20:00","2015","01","13","20:00","","1.0","","0.9","","99","","32","","7","","32.2","","102.87","","","","","","NA"
"2015-01-13 21:00","2015","01","13","21:00","","2.0","","1.9","","99","","2","","8","","32.2","","102.84","","","","","","NA"
"2015-01-13 22:00","2015","01","13","22:00","","1.5","","1.2","","98","","36","","2","","32.2","","102.82","","","","","","Clear"
"2015-01-13 23:00","2015","01","13","23:00","","0.5","","0.2","","98","","8","","7","","19.3","","102.79","","","","","","NA"
"2015-01-14 00:00","2015","01","14","00:00","","-0.1","","-0.4","","98","","12","","9","","0.4","","102.73","","","","-3","","Freezing Fog"
"2015-01-14 01:00","2015","01","14","01:00","","-0.6","","-0.9","","98","","9","","11","","0.8","","102.68","","","","-4","","Freezing Fog"
"2015-01-14 02:00","2015","01","14","02:00","","-1.4","","-1.5","","99","","8","","7","","1.2","","102.64","","","","-4","","Fog"
"2015-01-14 03:00","2015","01","14","03:00","","-1.6","","-1.7","","99","","9","","9","","0.8","","102.63","","","","-5","","Freezing Fog"
"2015-01-14 04:00","2015","01","14","04:00","","-1.1","","-1.2","","99","","14","","5","","0.8","","102.59","","","","-3","","Freezing Fog"
"2015-01-14 05:00","2015","01","14","05:00","","-1.4","","-1.5","","99","","10","","12","","0.8","","102.52","","","","-5","","Freezing Fog"
"2015-01-14 06:00","2015","01","14","06:00","","-1.4","","-1.5","","99","","9","","13","","1.6","","102.50","","","","-6","","NA"
"2015-01-14 07:00","2015","01","14","07:00","","-1.2","","-1.3","","99","","9","","5","","0.8","","102.50","","","","-3","","Freezing Fog"
"2015-01-14 08:00","2015","01","14","08:00","","-0.7","","-0.8","","99","","9","","6","","2.0","","102.43","","","","-3","","Fog"
"2015-01-14 09:00","2015","01","14","09:00","","0.3","","0.2","","99","","9","","9","","0.2","","102.44","","","","","","Fog"
"2015-01-14 10:00","2015","01","14","10:00","","1.2","","1.1","","99","","9","","11","","0.6","","102.43","","","","","","Fog"
"2015-01-14 11:00","2015","01","14","11:00","","1.9","","1.8","","99","","9","","8","","0.4","","102.42","","","","","","Fog"
"2015-01-14 12:00","2015","01","14","12:00","","3.1","","3.0","","99","","29","","8","","0.4","","102.38","","","","","","Fog"
"2015-01-14 13:00","2015","01","14","13:00","","3.8","","3.7","","99","","33","","9","","24.1","","102.30","","","","","","Cloudy"
"2015-01-14 14:00","2015","01","14","14:00","","3.6","","3.5","","99","","19","","8","","16.1","","102.29","","","","","","NA"
"2015-01-14 15:00","2015","01","14","15:00","","3.8","","3.5","","98","","5","","5","","16.1","","102.29","","","","","","NA"
"2015-01-14 16:00","2015","01","14","16:00","","3.9","","3.2","","95","","8","","7","","32.2","","102.26","","","","","","Mostly Cloudy"
"2015-01-14 17:00","2015","01","14","17:00","","3.3","","2.7","","96","","14","","8","","32.2","","102.26","","","","","","NA"
"2015-01-14 18:00","2015","01","14","18:00","","2.9","","2.2","","95","","19","","5","","24.1","","102.19","","","","","","NA"
"2015-01-14 19:00","2015","01","14","19:00","","1.1","","0.7","","97","","23","","4","","24.1","","102.20","","","","","","Mainly Clear"
"2015-01-14 20:00","2015","01","14","20:00","","0.7","","0.4","","98","","27","","5","","0.8","","102.20","","","","","","Fog"
"2015-01-14 21:00","2015","01","14","21:00","","0.3","","0.2","","99","","27","","4","","0.8","","102.23","","","","","","Fog"
"2015-01-14 22:00","2015","01","14","22:00","","0.6","","0.5","","99","","36","","8","","24.1","","102.28","","","","","","Mostly Cloudy"
"2015-01-14 23:00","2015","01","14","23:00","","1.5","","1.2","","98","","36","","2","","24.1","","102.31","","","","","","NA"
"2015-01-15 00:00","2015","01","15","00:00","","1.0","","0.7","","98","","8","","15","","32.2","","102.19","","","","","","NA"
"2015-01-15 01:00","2015","01","15","01:00","","2.0","","1.3","","95","","9","","14","","32.2","","102.09","","","","","","Mainly Clear"
"2015-01-15 02:00","2015","01","15","02:00","","1.8","","0.8","","93","","12","","13","","32.2","","102.07","","","","","","NA"
"2015-01-15 03:00","2015","01","15","03:00","","1.8","","0.5","","91","","8","","9","","32.2","","102.09","","","","","","NA"
"2015-01-15 04:00","2015","01","15","04:00","","0.9","","-0.1","","93","","11","","7","","32.2","","102.01","","","","","","Mainly Clear"
"2015-01-15 05:00","2015","01","15","05:00","","-0.3","","-1.0","","95","","36","","3","","32.2","","101.95","","","","-1","","NA"
"2015-01-15 06:00","2015","01","15","06:00","","1.5","","0.6","","94","","18","","4","","32.2","","101.90","","","","","","NA"
"2015-01-15 07:00","2015","01","15","07:00"
"2015-01-15 08:00","2015","01","15","08:00","","1.7","","0.5","","92","","9","","9","","48.3","","101.76","","","","","","NA"
"2015-01-15 09:00","2015","01","15","09:00","","3.3","","1.7","","89","","11","","11","","48.3","","101.85","","","","","","NA"
"2015-01-15 10:00","2015","01","15","10:00","","4.4","","1.9","","84","","9","","10","","48.3","","101.78","","","","","","Cloudy"
"2015-01-15 11:00","2015","01","15","11:00","","5.6","","3.1","","84","","9","","13","","48.3","","101.70","","","","","","NA"
"2015-01-15 12:00","2015","01","15","12:00","","5.8","","2.6","","80","","7","","12","","24.1","","101.69","","","","","","Rain"
"2015-01-15 13:00","2015","01","15","13:00","","6.9","","3.0","","76","","6","","14","","24.1","","101.54","","","","","","Cloudy"
"2015-01-15 14:00","2015","01","15","14:00","","7.8","","3.3","","73","","6","","13","","24.1","","101.47","","","","","","NA"
"2015-01-15 15:00","2015","01","15","15:00","","7.8","","3.7","","75","","6","","14","","24.1","","101.41","","","","","","Rain"
"2015-01-15 16:00","2015","01","15","16:00","","7.4","","4.5","","82","","8","","17","","24.1","","101.27","","","","","","Rain"
"2015-01-15 17:00","2015","01","15","17:00","","7.7","","5.0","","83","","7","","28","","24.1","","101.14","","","","","","Rain"
"2015-01-15 18:00","2015","01","15","18:00","","7.3","","5.6","","89","","7","","14","","24.1","","101.00","","","","","","Rain"
"2015-01-15 19:00","2015","01","15","19:00","","7.6","","6.2","","91","","7","","19","","24.1","","100.83","","","","","","Rain"
"2015-01-15 20:00","2015","01","15","20:00","","8.2","","6.8","","91","","9","","30","","19.3","","100.71","","","","","","Rain"
"2015-01-15 21:00","2015","01","15","21:00","","8.3","","6.9","","91","","8","","28","","19.3","","100.61","","","","","","Rain"
"2015-01-15 22:00","2015","01","15","22:00","","8.5","","6.6","","88","","9","","27","","24.1","","100.53","","","","","","Cloudy"
"2015-01-15 23:00","2015","01","15","23:00","","8.8","","6.9","","88","","12","","30","","24.1","","100.52","","","","","","Rain"
"2015-01-16 00:00","2015","01","16","00:00","","9.1","","6.6","","84","","15","","35","","24.1","","100.48","","","","","","NA"
"2015-01-16 01:00","2015","01","16","01:00","","8.4","","6.5","","88","","15","","27","","24.1","","100.50","","","","","","Cloudy"
"2015-01-16 02:00","2015","01","16","02:00","","9.2","","6.8","","85","","16","","32","","24.1","","100.50","","","","","","NA"
"2015-01-16 03:00","2015","01","16","03:00","","9.4","","5.6","","77","","19","","35","","24.1","","100.62","","","","","","NA"
"2015-01-16 04:00","2015","01","16","04:00","","7.8","","6.6","","92","","26","","34","","24.1","","100.86","","","","","","Rain"
"2015-01-16 05:00","2015","01","16","05:00","","7.3","","6.4","","94","","28","","30","","19.3","","101.04","","","","","","Rain"
"2015-01-16 06:00","2015","01","16","06:00","","7.5","","6.3","","92","","26","","32","","19.3","","101.17","","","","","","Rain"
"2015-01-16 07:00","2015","01","16","07:00","","7.5","","6.1","","91","","26","","28","","24.1","","101.29","","","","","","Cloudy"
"2015-01-16 08:00","2015","01","16","08:00","","7.3","","5.6","","89","","26","","24","","24.1","","101.43","","","","","","NA"
"2015-01-16 09:00","2015","01","16","09:00","","7.2","","5.4","","88","","25","","28","","48.3","","101.59","","","","","","NA"
"2015-01-16 10:00","2015","01","16","10:00","","8.1","","5.7","","85","","24","","27","","48.3","","101.77","","","","","","Mostly Cloudy"
"2015-01-16 11:00","2015","01","16","11:00","","8.5","","6.5","","87","","20","","13","","48.3","","101.90","","","","","","NA"
"2015-01-16 12:00","2015","01","16","12:00","","9.2","","6.0","","80","","18","","15","","48.3","","101.95","","","","","","NA"
"2015-01-16 13:00","2015","01","16","13:00","","9.9","","5.3","","73","","20","","8","","48.3","","102.01","","","","","","Cloudy"
"2015-01-16 14:00","2015","01","16","14:00","","10.6","","5.2","","69","","20","","9","","48.3","","102.09","","","","","","NA"
"2015-01-16 15:00","2015","01","16","15:00","","10.5","","3.8","","63","","36","","1","","48.3","","102.12","","","","","","NA"
"2015-01-16 16:00","2015","01","16","16:00","","9.9","","4.5","","69","","10","","17","","48.3","","102.16","","","","","","Mostly Cloudy"
"2015-01-16 17:00","2015","01","16","17:00","","6.8","","3.6","","80","","10","","16","","48.3","","102.16","","","","","","NA"
"2015-01-16 18:00","2015","01","16","18:00","","8.2","","5.7","","84","","10","","12","","32.2","","102.22","","","","","","NA"
"2015-01-16 19:00","2015","01","16","19:00","","7.5","","5.2","","85","","9","","13","","32.2","","102.21","","","","","","Mostly Cloudy"
"2015-01-16 20:00","2015","01","16","20:00","","7.7","","5.5","","86","","9","","11","","32.2","","102.16","","","","","","NA"
"2015-01-16 21:00","2015","01","16","21:00","","7.1","","5.4","","89","","10","","12","","32.2","","102.26","","","","","","NA"
"2015-01-16 22:00","2015","01","16","22:00","","6.7","","5.2","","90","","10","","13","","32.2","","102.27","","","","","","Mostly Cloudy"
"2015-01-16 23:00","2015","01","16","23:00","","6.1","","4.4","","89","","9","","17","","32.2","","102.19","","","","","","NA"
"2015-01-17 00:00","2015","01","17","00:00","","6.3","","4.1","","86","","9","","14","","32.2","","102.14","","","","","","NA"
"2015-01-17 01:00","2015","01","17","01:00","","5.6","","3.9","","89","","8","","10","","32.2","","102.04","","","","","","Mostly Cloudy"
"2015-01-17 02:00","2015","01","17","02:00","","4.8","","3.8","","93","","9","","9","","32.2","","101.99","","","","","","NA"
"2015-01-17 03:00","2015","01","17","03:00","","3.1","","2.4","","95","","9","","13","","32.2","","101.94","","","","","","NA"
"2015-01-17 04:00","2015","01","17","04:00","","4.7","","3.5","","92","","9","","10","","32.2","","101.88","","","","","","Cloudy"
"2015-01-17 05:00","2015","01","17","05:00","","5.6","","4.1","","90","","8","","18","","32.2","","101.79","","","","","","NA"
"2015-01-17 06:00","2015","01","17","06:00","","5.4","","3.7","","89","","9","","14","","32.2","","101.67","","","","","","NA"
"2015-01-17 07:00","2015","01","17","07:00","","6.3","","3.6","","83","","8","","12","","32.2","","101.58","","","","","","Cloudy"
"2015-01-17 08:00","2015","01","17","08:00","","7.1","","3.5","","78","","6","","13","","32.2","","101.46","","","","","","NA"
"2015-01-17 09:00","2015","01","17","09:00","","7.7","","3.4","","74","","12","","13","","32.2","","101.47","","","","","","NA"
"2015-01-17 10:00","2015","01","17","10:00","","6.3","","4.1","","86","","33","","9","","24.1","","101.54","","","","","","Rain"
"2015-01-17 11:00","2015","01","17","11:00","","8.2","","3.3","","71","","6","","17","","19.3","","101.48","","","","","","Rain"
"2015-01-17 12:00","2015","01","17","12:00","","8.7","","3.8","","71","","4","","15","","19.3","","101.34","","","","","","NA"
"2015-01-17 13:00","2015","01","17","13:00","","8.8","","4.3","","73","","13","","15","","24.1","","101.25","","","","","","Rain"
"2015-01-17 14:00","2015","01","17","14:00","","8.8","","4.5","","74","","7","","10","","24.1","","101.13","","","","","","NA"
"2015-01-17 15:00","2015","01","17","15:00","","6.8","","4.5","","85","","24","","10","","24.1","","101.07","","","","","","NA"
"2015-01-17 16:00","2015","01","17","16:00","","6.3","","5.0","","91","","23","","9","","24.1","","101.00","","","","","","Cloudy"
"2015-01-17 17:00","2015","01","17","17:00","","6.1","","4.9","","92","","16","","5","","16.1","","100.95","","","","","","Rain"
"2015-01-17 18:00","2015","01","17","18:00","","6.5","","5.3","","92","","10","","10","","16.1","","100.85","","","","","","Rain"
"2015-01-17 19:00","2015","01","17","19:00","","6.2","","5.8","","97","","10","","10","","12.9","","100.65","","","","","","Rain"
"2015-01-17 20:00","2015","01","17","20:00","","6.2","","5.8","","97","","10","","16","","12.9","","100.52","","","","","","Rain"
"2015-01-17 21:00","2015","01","17","21:00","","6.4","","6.0","","97","","10","","18","","12.9","","100.35","","","","","","Rain"
"2015-01-17 22:00","2015","01","17","22:00","","6.6","","6.0","","96","","7","","17","","12.9","","100.17","","","","","","Moderate Rain"
"2015-01-17 23:00","2015","01","17","23:00","","6.8","","6.2","","96","","9","","19","","12.9","","100.06","","","","","","Rain"
"2015-01-18 00:00","2015","01","18","00:00","","7.1","","6.5","","96","","8","","25","","16.1","","99.83","","","","","","Rain"
"2015-01-18 01:00","2015","01","18","01:00","","7.1","","6.7","","97","","9","","26","","12.9","","99.72","","","","","","Moderate Rain"
"2015-01-18 02:00","2015","01","18","02:00","","7.6","","7.2","","97","","11","","19","","12.9","","99.82","","","","","","Heavy Rain"
"2015-01-18 03:00","2015","01","18","03:00","","8.0","","7.6","","97","","7","","15","","24.1","","100.03","","","","","","NA"
"2015-01-18 04:00","2015","01","18","04:00","","9.2","","7.3","","88","","12","","21","","24.1","","100.18","","","","","","Cloudy"
"2015-01-18 05:00","2015","01","18","05:00","","9.8","","7.4","","85","","15","","27","","19.3","","100.18","","","","","","Rain"
"2015-01-18 06:00","2015","01","18","06:00","","9.1","","8.4","","95","","14","","35","","16.1","","100.27","","","","","","Rain"
"2015-01-18 07:00","2015","01","18","07:00","","9.4","","7.9","","90","","16","","30","","24.1","","100.31","","","","","","Cloudy"
"2015-01-18 08:00","2015","01","18","08:00","","9.4","","6.9","","84","","18","","35","","19.3","","100.48","","","","","","Rain"
"2015-01-18 09:00","2015","01","18","09:00","","9.7","","6.4","","80","","18","","31","","24.1","","100.72","","","","","","NA"
"2015-01-18 10:00","2015","01","18","10:00","","9.3","","5.9","","79","","19","","31","","24.1","","100.94","","","","","","Mostly Cloudy"
"2015-01-18 11:00","2015","01","18","11:00","","9.9","","4.7","","70","","19","","29","","24.1","","101.16","","","","","","NA"
"2015-01-18 12:00","2015","01","18","12:00","","8.9","","5.1","","77","","19","","31","","24.1","","101.28","","","","","","NA"
"2015-01-18 13:00","2015","01","18","13:00","","9.0","","5.8","","80","","19","","35","","24.1","","101.36","","","","","","Mostly Cloudy"
"2015-01-18 14:00","2015","01","18","14:00","","9.3","","5.7","","78","","19","","22","","24.1","","101.46","","","","","","NA"
"2015-01-18 15:00","2015","01","18","15:00","","9.4","","5.6","","77","","18","","22","","24.1","","101.54","","","","","","NA"
"2015-01-18 16:00","2015","01","18","16:00","","9.0","","4.8","","75","","20","","21","","24.1","","101.62","","","","","","Mostly Cloudy"
"2015-01-18 17:00","2015","01","18","17:00","","7.8","","4.4","","79","","19","","25","","24.1","","101.71","","","","","","NA"
"2015-01-18 18:00","2015","01","18","18:00","","7.9","","4.7","","80","","20","","26","","24.1","","101.86","","","","","","NA"
"2015-01-18 19:00","2015","01","18","19:00","","7.5","","4.1","","79","","19","","20","","24.1","","101.94","","","","","","Mainly Clear"
"2015-01-18 20:00","2015","01","18","20:00","","7.9","","4.5","","79","","16","","13","","24.1","","102.02","","","","","","NA"
"2015-01-18 21:00","2015","01","18","21:00","","8.1","","4.2","","76","","19","","18","","24.1","","102.08","","","","","","NA"
"2015-01-18 22:00","2015","01","18","22:00","","7.8","","4.0","","77","","16","","8","","24.1","","102.17","","","","","","Cloudy"
"2015-01-18 23:00","2015","01","18","23:00","","7.7","","3.8","","76","","16","","4","","24.1","","102.23","","","","","","NA"
"2015-01-19 00:00","2015","01","19","00:00","","7.5","","5.0","","84","","6","","9","","24.1","","102.29","","","","","","NA"
"2015-01-19 01:00","2015","01","19","01:00","","7.3","","5.5","","88","","7","","10","","19.3","","102.31","","","","","","Rain"
"2015-01-19 02:00","2015","01","19","02:00","","6.9","","5.4","","90","","10","","11","","24.1","","102.32","","","","","","NA"
"2015-01-19 03:00","2015","01","19","03:00","","5.3","","4.6","","95","","2","","9","","24.1","","102.40","","","","","","Rain"
"2015-01-19 04:00","2015","01","19","04:00","","4.8","","4.2","","96","","14","","7","","24.1","","102.43","","","","","","Mostly Cloudy"
"2015-01-19 05:00","2015","01","19","05:00","","3.3","","2.7","","96","","10","","12","","24.1","","102.48","","","","","","NA"
"2015-01-19 06:00","2015","01","19","06:00","","3.7","","3.1","","96","","7","","10","","24.1","","102.54","","","","","","NA"
"2015-01-19 07:00","2015","01","19","07:00","","3.4","","3.0","","97","","10","","10","","32.2","","102.60","","","","","","Mainly Clear"
"2015-01-19 08:00","2015","01","19","08:00","","2.8","","2.4","","97","","9","","12","","32.2","","102.66","","","","","","NA"
"2015-01-19 09:00","2015","01","19","09:00","","3.5","","3.2","","98","","8","","12","","32.2","","102.73","","","","","","NA"
"2015-01-19 10:00","2015","01","19","10:00","","6.7","","5.8","","94","","9","","9","","32.2","","102.82","","","","","","Mainly Clear"
"2015-01-19 11:00","2015","01","19","11:00","","8.6","","5.9","","83","","10","","9","","32.2","","102.88","","","","","","NA"
"2015-01-19 12:00","2015","01","19","12:00","","9.6","","5.2","","74","","11","","5","","32.2","","102.88","","","","","","NA"
"2015-01-19 13:00","2015","01","19","13:00","","8.9","","4.7","","75","","22","","10","","32.2","","102.87","","","","","","Mainly Clear"
"2015-01-19 14:00","2015","01","19","14:00","","9.0","","4.8","","75","","21","","8","","32.2","","102.87","","","","","","NA"
"2015-01-19 15:00","2015","01","19","15:00","","8.9","","4.2","","72","","21","","8","","32.2","","102.91","","","","","","NA"
"2015-01-19 16:00","2015","01","19","16:00","","7.6","","3.5","","75","","21","","6","","32.2","","102.94","","","","","","Mainly Clear"
"2015-01-19 17:00","2015","01","19","17:00","","6.9","","3.2","","77","","36","","3","","32.2","","102.97","","","","","","NA"
"2015-01-19 18:00","2015","01","19","18:00","","6.1","","2.7","","79","","11","","4","","32.2","","102.98","","","","","","NA"
"2015-01-19 19:00","2015","01","19","19:00","","6.5","","4.2","","85","","6","","10","","32.2","","102.99","","","","","","Mostly Cloudy"
"2015-01-19 20:00","2015","01","19","20:00","","6.8","","4.6","","86","","5","","9","","32.2","","103.01","","","","","","NA"
"2015-01-19 21:00","2015","01","19","21:00","","5.9","","4.4","","90","","6","","12","","32.2","","103.01","","","","","","NA"
"2015-01-19 22:00","2015","01","19","22:00","","5.2","","3.9","","91","","6","","7","","32.2","","103.03","","","","","","Mainly Clear"
"2015-01-19 23:00","2015","01","19","23:00","","4.4","","3.4","","93","","8","","8","","32.2","","103.07","","","","","","NA"
"2015-01-20 00:00","2015","01","20","00:00","","3.0","","2.3","","95","","8","","9","","32.2","","103.10","","","","","","NA"
"2015-01-20 01:00","2015","01","20","01:00","","4.5","","3.5","","93","","7","","9","","32.2","","103.10","","","","","","Mostly Cloudy"
"2015-01-20 02:00","2015","01","20","02:00","","6.0","","4.3","","89","","6","","10","","24.1","","103.14","","","","","","NA"
"2015-01-20 03:00","2015","01","20","03:00","","5.4","","4.1","","91","","4","","7","","24.1","","103.15","","","","","","NA"
"2015-01-20 04:00","2015","01","20","04:00","","5.8","","4.1","","89","","6","","8","","24.1","","103.14","","","","","","Cloudy"
"2015-01-20 05:00","2015","01","20","05:00","","5.4","","3.9","","90","","7","","7","","24.1","","103.12","","","","","","NA"
"2015-01-20 06:00","2015","01","20","06:00","","5.4","","4.2","","92","","9","","9","","24.1","","103.14","","","","","","NA"
"2015-01-20 07:00","2015","01","20","07:00","","5.7","","4.0","","89","","11","","7","","24.1","","103.16","","","","","","Cloudy"
"2015-01-20 08:00","2015","01","20","08:00","","5.3","","4.0","","91","","33","","4","","32.2","","103.14","","","","","","NA"
"2015-01-20 09:00","2015","01","20","09:00","","6.0","","4.5","","90","","36","","1","","32.2","","103.15","","","","","","NA"
"2015-01-20 10:00","2015","01","20","10:00","","6.8","","4.3","","84","","31","","3","","48.3","","103.14","","","","","","Mostly Cloudy"
"2015-01-20 11:00","2015","01","20","11:00","","7.5","","4.6","","82","","30","","7","","48.3","","103.16","","","","","","NA"
"2015-01-20 12:00","2015","01","20","12:00","","8.2","","3.9","","74","","28","","9","","48.3","","103.12","","","","","","NA"
"2015-01-20 13:00","2015","01","20","13:00","","8.4","","3.3","","70","","29","","12","","48.3","","103.06","","","","","","Cloudy"
"2015-01-20 14:00","2015","01","20","14:00","","7.5","","3.8","","77","","27","","14","","48.3","","103.04","","","","","","NA"
"2015-01-20 15:00","2015","01","20","15:00","","6.9","","3.7","","80","","28","","11","","48.3","","103.00","","","","","","NA"
"2015-01-20 16:00","2015","01","20","16:00","","5.9","","4.2","","89","","29","","16","","48.3","","102.96","","","","","","Cloudy"
"2015-01-20 17:00","2015","01","20","17:00","","5.4","","3.7","","89","","30","","16","","48.3","","102.94","","","","","","NA"
"2015-01-20 18:00","2015","01","20","18:00","","4.4","","3.2","","92","","29","","12","","32.2","","102.93","","","","","","NA"
"2015-01-20 19:00","2015","01","20","19:00","","4.1","","2.9","","92","","36","","5","","32.2","","102.88","","","","","","Mainly Clear"
"2015-01-20 20:00","2015","01","20","20:00","","5.5","","1.6","","76","","36","","2","","32.2","","102.88","","","","","","NA"
"2015-01-20 21:00","2015","01","20","21:00","","3.3","","1.5","","88","","8","","5","","32.2","","102.85","","","","","","NA"
"2015-01-20 22:00","2015","01","20","22:00","","2.3","","1.4","","94","","33","","7","","32.2","","102.85","","","","","","Clear"
"2015-01-20 23:00","2015","01","20","23:00","","3.4","","2.1","","91","","7","","5","","32.2","","102.84","","","","","","NA"
"2015-01-21 00:00","2015","01","21","00:00","","1.4","","0.8","","96","","36","","2","","32.2","","102.85","","","","","","NA"
"2015-01-21 01:00","2015","01","21","01:00","","0.8","","0.4","","97","","2","","4","","32.2","","102.82","","","","","","Clear"
"2015-01-21 02:00","2015","01","21","02:00","","1.1","","0.5","","96","","36","","2","","32.2","","102.80","","","","","","NA"
"2015-01-21 03:00","2015","01","21","03:00","","-0.8","","-1.5","","95","","0","","1","","32.2","","102.80","","","","-1","","NA"
"2015-01-21 04:00","2015","01","21","04:00","","0.9","","0.5","","97","","8","","4","","32.2","","102.76","","","","","","Mainly Clear"
"2015-01-21 05:00","2015","01","21","05:00","","-1.1","","-1.5","","97","","10","","4","","32.2","","102.74","","","","-2","","NA"
"2015-01-21 06:00","2015","01","21","06:00","","-0.2","","-0.8","","96","","8","","8","","32.2","","102.67","","","","-3","","NA"
"2015-01-21 07:00","2015","01","21","07:00","","1.5","","0.8","","95","","11","","4","","32.2","","102.66","","","","","","Mostly Cloudy"
"2015-01-21 08:00","2015","01","21","08:00","","0.3","","-0.3","","96","","36","","2","","48.3","","102.68","","","","","","NA"
"2015-01-21 09:00","2015","01","21","09:00","","2.7","","1.2","","90","","11","","6","","48.3","","102.68","","","","","","NA"
"2015-01-21 10:00","2015","01","21","10:00","","3.3","","2.0","","91","","10","","6","","48.3","","102.67","","","","","","Cloudy"
"2015-01-21 11:00","2015","01","21","11:00","","4.5","","2.0","","84","","10","","4","","48.3","","102.67","","","","","","NA"
"2015-01-21 12:00","2015","01","21","12:00","","5.2","","2.0","","80","","18","","5","","48.3","","102.60","","","","","","NA"
"2015-01-21 13:00","2015","01","21","13:00","","5.9","","2.7","","80","","13","","3","","48.3","","102.51","","","","","","Cloudy"
"2015-01-21 14:00","2015","01","21","14:00","","6.1","","3.1","","81","","22","","8","","48.3","","102.45","","","","","","NA"
"2015-01-21 15:00","2015","01","21","15:00","","5.4","","2.6","","82","","23","","7","","48.3","","102.44","","","","","","NA"
"2015-01-21 16:00","2015","01","21","16:00","","5.5","","2.9","","83","","28","","5","","48.3","","102.41","","","","","","Cloudy"
"2015-01-21 17:00","2015","01","21","17:00","","5.0","","2.9","","86","","30","","4","","48.3","","102.41","","","","","","NA"
"2015-01-21 18:00","2015","01","21","18:00","","4.9","","2.6","","85","","28","","4","","48.3","","102.40","","","","","","NA"
"2015-01-21 19:00","2015","01","21","19:00","","5.1","","3.0","","86","","36","","3","","48.3","","102.35","","","","","","Cloudy"
"2015-01-21 20:00","2015","01","21","20:00","","4.9","","3.3","","89","","22","","7","","48.3","","102.37","","","","","","NA"
"2015-01-21 21:00","2015","01","21","21:00","","5.1","","3.6","","90","","36","","1","","32.2","","102.39","","","","","","Rain"
"2015-01-21 22:00","2015","01","21","22:00","","5.2","","4.0","","92","","1","","7","","32.2","","102.41","","","","","","Rain"
"2015-01-21 23:00","2015","01","21","23:00","","5.8","","4.3","","90","","2","","3","","24.1","","102.44","","","","","","Rain"
"2015-01-22 00:00","2015","01","22","00:00","","5.2","","4.3","","94","","23","","8","","24.1","","102.49","","","","","","Rain"
"2015-01-22 01:00","2015","01","22","01:00","","5.2","","4.5","","95","","11","","7","","24.1","","102.48","","","","","","Rain"
"2015-01-22 02:00","2015","01","22","02:00","","5.2","","4.5","","95","","8","","9","","24.1","","102.49","","","","","","Rain"
"2015-01-22 03:00","2015","01","22","03:00","","5.9","","4.9","","93","","7","","6","","24.1","","102.52","","","","","","Rain"
"2015-01-22 04:00","2015","01","22","04:00","","6.0","","5.0","","93","","7","","11","","24.1","","102.50","","","","","","Rain"
"2015-01-22 05:00","2015","01","22","05:00","","5.7","","5.0","","95","","9","","8","","24.1","","102.48","","","","","","Rain"
"2015-01-22 06:00","2015","01","22","06:00","","5.4","","4.8","","96","","12","","9","","24.1","","102.47","","","","","","NA"
"2015-01-22 07:00","2015","01","22","07:00","","5.8","","4.9","","94","","9","","7","","24.1","","102.49","","","","","","Rain"
"2015-01-22 08:00","2015","01","22","08:00","","6.2","","5.6","","96","","6","","12","","4.8","","102.53","","","","","","Drizzle,Fog"
"2015-01-22 09:00","2015","01","22","09:00","","6.5","","5.9","","96","","8","","13","","19.3","","102.57","","","","","","Rain"
"2015-01-22 10:00","2015","01","22","10:00","","6.8","","6.1","","95","","8","","10","","24.1","","102.66","","","","","","Rain"
"2015-01-22 11:00","2015","01","22","11:00","","7.4","","6.5","","94","","7","","10","","8.1","","102.71","","","","","","Drizzle,Fog"
"2015-01-22 12:00","2015","01","22","12:00","","7.6","","7.0","","96","","10","","8","","24.1","","102.71","","","","","","Drizzle"
"2015-01-22 13:00","2015","01","22","13:00","","7.9","","7.2","","95","","10","","9","","24.1","","102.66","","","","","","Rain"
"2015-01-22 14:00","2015","01","22","14:00","","7.9","","7.0","","94","","13","","9","","24.1","","102.67","","","","","","NA"
"2015-01-22 15:00","2015","01","22","15:00","","8.0","","7.1","","94","","8","","16","","19.3","","102.71","","","","","","Drizzle"
"2015-01-22 16:00","2015","01","22","16:00","","7.8","","6.8","","93","","9","","11","","24.1","","102.71","","","","","","Cloudy"
"2015-01-22 17:00","2015","01","22","17:00","","7.7","","7.0","","95","","13","","9","","6.4","","102.71","","","","","","Drizzle,Fog"
"2015-01-22 18:00","2015","01","22","18:00","","7.4","","7.0","","97","","9","","16","","11.3","","102.66","","","","","","Drizzle"
"2015-01-22 19:00","2015","01","22","19:00","","7.5","","7.1","","97","","8","","14","","4.8","","102.69","","","","","","Drizzle,Fog"
"2015-01-22 20:00","2015","01","22","20:00","","7.5","","7.2","","98","","8","","9","","4.0","","102.73","","","","","","Rain,Fog"
"2015-01-22 21:00","2015","01","22","21:00","","7.9","","7.5","","97","","7","","13","","12.9","","102.73","","","","","","Rain"
"2015-01-22 22:00","2015","01","22","22:00","","8.1","","7.5","","96","","8","","10","","12.9","","102.74","","","","","","Rain"
"2015-01-22 23:00","2015","01","22","23:00","","8.3","","7.6","","95","","6","","10","","24.1","","102.73","","","","","","Drizzle"
"2015-01-23 00:00","2015","01","23","00:00","","8.6","","7.7","","94","","3","","9","","24.1","","102.83","","","","","","Drizzle"
"2015-01-23 01:00","2015","01","23","01:00","","8.5","","7.9","","96","","7","","14","","12.9","","102.82","","","","","","Rain"
"2015-01-23 02:00","2015","01","23","02:00","","8.3","","7.7","","96","","7","","14","","12.9","","102.77","","","","","","Rain"
"2015-01-23 03:00","2015","01","23","03:00","","8.7","","8.4","","98","","7","","19","","12.9","","102.70","","","","","","Rain"
"2015-01-23 04:00","2015","01","23","04:00","","8.9","","8.5","","97","","6","","18","","6.4","","102.73","","","","","","Drizzle,Fog"
"2015-01-23 05:00","2015","01","23","05:00","","9.2","","8.8","","97","","6","","15","","4.8","","102.70","","","","","","Drizzle,Fog"
"2015-01-23 06:00","2015","01","23","06:00","","9.1","","8.8","","98","","8","","18","","4.8","","102.64","","","","","","Rain,Fog"
"2015-01-23 07:00","2015","01","23","07:00","","9.3","","8.7","","96","","8","","16","","4.8","","102.57","","","","","","Moderate Rain,Fog"
"2015-01-23 08:00","2015","01","23","08:00","","9.6","","8.8","","95","","8","","16","","9.7","","102.54","","","","","","Rain,Fog"
"2015-01-23 09:00","2015","01","23","09:00","","9.6","","9.0","","96","","7","","21","","6.4","","102.49","","","","","","Rain,Fog"
"2015-01-23 10:00","2015","01","23","10:00","","9.5","","9.1","","97","","11","","24","","4.8","","102.48","","","","","","Rain,Fog"
"2015-01-23 11:00","2015","01","23","11:00","","9.9","","9.3","","96","","11","","23","","4.8","","102.46","","","","","","Heavy Rain,Fog"
"2015-01-23 12:00","2015","01","23","12:00","","10.2","","9.8","","97","","9","","27","","4.8","","102.39","","","","","","Heavy Rain,Fog"
"2015-01-23 13:00","2015","01","23","13:00","","9.9","","9.5","","97","","11","","25","","6.4","","102.35","","","","","","Rain,Fog"
"2015-01-23 14:00","2015","01","23","14:00","","10.0","","9.4","","96","","11","","23","","6.4","","102.21","","","","","","Rain,Fog"
"2015-01-23 15:00","2015","01","23","15:00","","9.9","","9.1","","95","","12","","25","","16.1","","102.19","","","","","","Rain,Fog"
"2015-01-23 16:00","2015","01","23","16:00","","10.0","","9.2","","95","","11","","25","","16.1","","102.16","","","","","","Cloudy"
"2015-01-23 17:00","2015","01","23","17:00","","10.1","","9.5","","96","","12","","27","","16.1","","102.13","","","","","","Rain"
"2015-01-23 18:00","2015","01","23","18:00","","10.2","","9.4","","95","","12","","16","","19.3","","102.09","","","","","","NA"
"2015-01-23 19:00","2015","01","23","19:00","","10.4","","9.6","","95","","11","","13","","16.1","","102.11","","","","","","Cloudy"
"2015-01-23 20:00","2015","01","23","20:00","","10.9","","10.1","","95","","8","","9","","24.1","","102.15","","","","","","NA"
"2015-01-23 21:00","2015","01","23","21:00","","10.8","","9.9","","94","","10","","11","","24.1","","102.11","","","","","","NA"
"2015-01-23 22:00","2015","01","23","22:00","","11.1","","10.0","","93","","7","","9","","24.1","","102.17","","","","","","Cloudy"
"2015-01-23 23:00","2015","01","23","23:00","","10.7","","9.9","","95","","5","","14","","24.1","","102.23","","","","","","NA"
"2015-01-24 00:00","2015","01","24","00:00","","10.8","","10.0","","95","","7","","13","","24.1","","102.28","","","","","","NA"
"2015-01-24 01:00","2015","01","24","01:00","","10.5","","9.9","","96","","8","","14","","24.1","","102.26","","","","","","Cloudy"
"2015-01-24 02:00","2015","01","24","02:00","","10.8","","10.2","","96","","7","","16","","24.1","","102.31","","","","","","NA"
"2015-01-24 03:00","2015","01","24","03:00","","10.5","","10.1","","97","","9","","14","","24.1","","102.40","","","","","","NA"
"2015-01-24 04:00","2015","01","24","04:00","","10.4","","10.0","","97","","9","","16","","24.1","","102.42","","","","","","Cloudy"
"2015-01-24 05:00","2015","01","24","05:00","","10.2","","9.9","","98","","9","","13","","19.3","","102.41","","","","","","Rain"
"2015-01-24 06:00","2015","01","24","06:00","","10.4","","10.1","","98","","9","","15","","24.1","","102.41","","","","","","NA"
"2015-01-24 07:00","2015","01","24","07:00","","10.2","","9.8","","97","","8","","17","","12.9","","102.39","","","","","","Cloudy"
"2015-01-24 08:00","2015","01","24","08:00","","10.6","","10.3","","98","","10","","17","","4.8","","102.41","","","","","","Rain"
"2015-01-24 09:00","2015","01","24","09:00","","10.7","","10.4","","98","","10","","16","","6.4","","102.39","","","","","","Rain"
"2015-01-24 10:00","2015","01","24","10:00","","11.0","","10.7","","98","","7","","14","","6.4","","102.40","","","","","","Moderate Rain"
"2015-01-24 11:00","2015","01","24","11:00","","11.2","","10.9","","98","","7","","17","","8.1","","102.44","","","","","","Rain"
"2015-01-24 12:00","2015","01","24","12:00","","11.2","","10.9","","98","","8","","16","","8.1","","102.39","","","","","","Rain"
"2015-01-24 13:00","2015","01","24","13:00","","11.2","","10.9","","98","","9","","15","","4.8","","102.35","","","","","","Drizzle,Fog"
"2015-01-24 14:00","2015","01","24","14:00","","11.6","","11.3","","98","","9","","8","","8.1","","102.28","","","","","","Fog"
"2015-01-24 15:00","2015","01","24","15:00","","11.6","","11.1","","97","","8","","9","","8.1","","102.21","","","","","","Fog"
"2015-01-24 16:00","2015","01","24","16:00","","11.8","","11.3","","97","","8","","9","","9.7","","102.21","","","","","","Fog"
"2015-01-24 17:00","2015","01","24","17:00","","11.8","","11.2","","96","","7","","9","","12.9","","102.19","","","","","","NA"
"2015-01-24 18:00","2015","01","24","18:00","","11.3","","10.9","","97","","8","","13","","16.1","","102.18","","","","","","NA"
"2015-01-24 19:00","2015","01","24","19:00","","11.7","","10.9","","95","","9","","14","","16.1","","102.15","","","","","","Mostly Cloudy"
"2015-01-24 20:00","2015","01","24","20:00","","11.4","","10.8","","96","","8","","11","","24.1","","102.14","","","","","","NA"
"2015-01-24 21:00","2015","01","24","21:00","","11.0","","10.6","","97","","11","","9","","24.1","","102.16","","","","","","NA"
"2015-01-24 22:00","2015","01","24","22:00","","10.6","","10.3","","98","","7","","12","","24.1","","102.14","","","","","","Cloudy"
"2015-01-24 23:00","2015","01","24","23:00","","10.0","","9.7","","98","","8","","11","","24.1","","102.18","","","","","","NA"
"2015-01-25 00:00","2015","01","25","00:00","","10.2","","9.9","","98","","8","","12","","24.1","","102.16","","","","","","NA"
"2015-01-25 01:00","2015","01","25","01:00","","10.7","","10.4","","98","","6","","17","","12.9","","102.19","","","","","","Cloudy"
"2015-01-25 02:00","2015","01","25","02:00","","10.6","","10.3","","98","","9","","18","","12.9","","102.17","","","","","","NA"
"2015-01-25 03:00","2015","01","25","03:00","","10.6","","10.3","","98","","8","","14","","24.1","","102.19","","","","","","NA"
"2015-01-25 04:00","2015","01","25","04:00","","9.9","","9.6","","98","","8","","15","","24.1","","102.18","","","","","","Cloudy"
"2015-01-25 05:00","2015","01","25","05:00","","10.2","","9.9","","98","","9","","15","","24.1","","102.17","","","","","","NA"
"2015-01-25 06:00","2015","01","25","06:00","","10.4","","10.0","","97","","10","","13","","24.1","","102.17","","","","","","NA"
"2015-01-25 07:00","2015","01","25","07:00","","10.1","","9.7","","97","","10","","17","","24.1","","102.15","","","","","","Cloudy"
"2015-01-25 08:00","2015","01","25","08:00","","10.6","","10.3","","98","","10","","12","","32.2","","102.14","","","","","","NA"
"2015-01-25 09:00","2015","01","25","09:00","","11.4","","11.0","","97","","9","","16","","32.2","","102.12","","","","","","NA"
"2015-01-25 10:00","2015","01","25","10:00","","12.2","","11.3","","94","","9","","15","","32.2","","102.14","","","","","","Mostly Cloudy"
"2015-01-25 11:00","2015","01","25","11:00","","12.9","","11.2","","89","","9","","10","","32.2","","102.17","","","","","","NA"
"2015-01-25 12:00","2015","01","25","12:00","","12.9","","11.3","","90","","11","","9","","32.2","","102.13","","","","","","NA"
"2015-01-25 13:00","2015","01","25","13:00","","14.0","","11.6","","85","","10","","7","","32.2","","102.04","","","","","","Cloudy"
"2015-01-25 14:00","2015","01","25","14:00","","12.3","","11.1","","92","","20","","10","","32.2","","101.98","","","","","","NA"
"2015-01-25 15:00","2015","01","25","15:00","","12.3","","10.9","","91","","30","","9","","32.2","","101.93","","","","","","NA"
"2015-01-25 16:00","2015","01","25","16:00","","10.8","","9.7","","93","","28","","5","","32.2","","101.87","","","","","","Cloudy"
"2015-01-25 17:00","2015","01","25","17:00","","9.2","","8.6","","96","","25","","4","","32.2","","101.82","","","","","","NA"
"2015-01-25 18:00","2015","01","25","18:00","","7.5","","7.1","","97","","15","","5","","32.2","","101.81","","","","","","NA"
"2015-01-25 19:00","2015","01","25","19:00","","7.6","","7.0","","96","","33","","5","","32.2","","101.79","","","","","","Mostly Cloudy"
"2015-01-25 20:00","2015","01","25","20:00","","6.9","","6.5","","97","","13","","4","","32.2","","101.70","","","","","","NA"
"2015-01-25 21:00","2015","01","25","21:00","","6.8","","6.4","","97","","36","","1","","32.2","","101.68","","","","","","NA"
"2015-01-25 22:00","2015","01","25","22:00","","5.6","","5.3","","98","","32","","9","","32.2","","101.64","","","","","","Mainly Clear"
"2015-01-25 23:00","2015","01","25","23:00","","5.9","","5.6","","98","","36","","7","","32.2","","101.58","","","","","","NA"
"2015-01-26 00:00","2015","01","26","00:00","","5.4","","5.1","","98","","1","","3","","32.2","","101.55","","","","","","NA"
"2015-01-26 01:00","2015","01","26","01:00","","5.8","","5.7","","99","","36","","2","","32.2","","101.46","","","","","","Cloudy"
"2015-01-26 02:00","2015","01","26","02:00","","6.1","","6.0","","99","","27","","5","","32.2","","101.41","","","","","","NA"
"2015-01-26 03:00","2015","01","26","03:00","","7.2","","7.2","","100","","36","","11","","32.2","","101.39","","","","","","NA"
"2015-01-26 04:00","2015","01","26","04:00","","7.6","","6.9","","95","","31","","9","","32.2","","101.27","","","","","","Mostly Cloudy"
"2015-01-26 05:00","2015","01","26","05:00","","6.7","","5.8","","94","","35","","18","","32.2","","101.26","","","","","","NA"
"2015-01-26 06:00","2015","01","26","06:00","","6.5","","6.2","","98","","32","","19","","0.2","","101.25","","","","","","Fog"
"2015-01-26 07:00","2015","01","26","07:00","","6.3","","6.2","","99","","32","","13","","0.8","","101.30","","","","","","Fog"
"2015-01-26 08:00","2015","01","26","08:00","","6.1","","6.0","","99","","9","","9","","0.4","","101.28","","","","","","Fog"
"2015-01-26 09:00","2015","01","26","09:00","","5.9","","5.8","","99","","9","","15","","0.4","","101.29","","","","","","Fog"
"2015-01-26 10:00","2015","01","26","10:00","","5.9","","5.8","","99","","23","","18","","0.8","","101.46","","","","","","Fog"
"2015-01-26 11:00","2015","01","26","11:00","","6.8","","6.7","","99","","5","","18","","0.8","","101.37","","","","","","Fog"
"2015-01-26 12:00","2015","01","26","12:00","","9.7","","9.6","","99","","10","","11","","24.1","","101.31","","","","","","NA"
"2015-01-26 13:00","2015","01","26","13:00","","12.5","","9.0","","79","","16","","8","","32.2","","101.21","","","","","","Mostly Cloudy"
"2015-01-26 14:00","2015","01","26","14:00","","7.8","","6.9","","94","","19","","16","","32.2","","101.15","","","","","","NA"
"2015-01-26 15:00","2015","01","26","15:00","","8.4","","7.2","","92","","22","","13","","32.2","","101.17","","","","","","NA"
"2015-01-26 16:00","2015","01","26","16:00","","8.4","","7.2","","92","","35","","7","","32.2","","101.18","","","","","","Mostly Cloudy"
"2015-01-26 17:00","2015","01","26","17:00","","6.5","","5.9","","96","","28","","8","","32.2","","101.21","","","","","","NA"
"2015-01-26 18:00","2015","01","26","18:00","","5.7","","5.4","","98","","1","","5","","32.2","","101.22","","","","","","NA"
"2015-01-26 19:00","2015","01","26","19:00","","6.4","","6.3","","99","","31","","3","","32.2","","101.25","","","","","","Mainly Clear"
"2015-01-26 20:00","2015","01","26","20:00","","5.5","","5.2","","98","","12","","6","","32.2","","101.30","","","","","","NA"
"2015-01-26 21:00","2015","01","26","21:00","","5.9","","5.8","","99","","9","","18","","24.1","","101.32","","","","","","NA"
"2015-01-26 22:00","2015","01","26","22:00","","6.6","","6.5","","99","","9","","15","","0.4","","101.37","","","","","","Fog"
"2015-01-26 23:00","2015","01","26","23:00","","7.5","","7.4","","99","","14","","15","","0.4","","101.38","","","","","","Fog"
"2015-01-27 00:00","2015","01","27","00:00","","7.4","","7.3","","99","","9","","15","","0.8","","101.44","","","","","","Fog"
"2015-01-27 01:00","2015","01","27","01:00","","7.4","","7.3","","99","","8","","8","","0.8","","101.44","","","","","","Fog"
"2015-01-27 02:00","2015","01","27","02:00","","7.3","","7.2","","99","","9","","9","","0.8","","101.47","","","","","","Fog"
"2015-01-27 03:00","2015","01","27","03:00","","7.4","","7.3","","99","","9","","9","","24.1","","101.47","","","","","","NA"
"2015-01-27 04:00","2015","01","27","04:00","","7.5","","7.4","","99","","10","","18","","24.1","","101.46","","","","","","Cloudy"
"2015-01-27 05:00","2015","01","27","05:00","","7.0","","6.9","","99","","9","","8","","24.1","","101.49","","","","","","NA"
"2015-01-27 06:00","2015","01","27","06:00","","7.7","","7.4","","98","","8","","13","","24.1","","101.48","","","","","","NA"
"2015-01-27 07:00","2015","01","27","07:00","","7.5","","7.1","","97","","10","","10","","24.1","","101.52","","","","","","Cloudy"
"2015-01-27 08:00","2015","01","27","08:00","","8.3","","7.7","","96","","10","","12","","24.1","","101.58","","","","","","NA"
"2015-01-27 09:00","2015","01","27","09:00","","8.9","","8.0","","94","","11","","14","","24.1","","101.63","","","","","","NA"
"2015-01-27 10:00","2015","01","27","10:00","","9.7","","8.6","","93","","10","","17","","24.1","","101.68","","","","","","Cloudy"
"2015-01-27 11:00","2015","01","27","11:00","","9.7","","8.9","","95","","9","","18","","24.1","","101.76","","","","","","NA"
"2015-01-27 12:00","2015","01","27","12:00","","10.6","","9.2","","91","","12","","11","","24.1","","101.76","","","","","","NA"
"2015-01-27 13:00","2015","01","27","13:00","","11.1","","9.5","","90","","13","","13","","24.1","","101.77","","","","","","Cloudy"
"2015-01-27 14:00","2015","01","27","14:00","","11.3","","9.4","","88","","15","","13","","24.1","","101.78","","","","","","NA"
"2015-01-27 15:00","2015","01","27","15:00","","9.9","","8.7","","92","","21","","12","","24.1","","101.83","","","","","","NA"
"2015-01-27 16:00","2015","01","27","16:00","","8.9","","8.2","","95","","29","","14","","24.1","","101.88","","","","","","Cloudy"
"2015-01-27 17:00","2015","01","27","17:00","","7.7","","7.3","","97","","29","","12","","24.1","","101.94","","","","","","NA"
"2015-01-27 18:00","2015","01","27","18:00","","7.8","","7.5","","98","","29","","9","","24.1","","102.02","","","","","","NA"
"2015-01-27 19:00","2015","01","27","19:00","","8.2","","7.6","","96","","28","","14","","19.3","","102.07","","","","","","Cloudy"
"2015-01-27 20:00","2015","01","27","20:00","","7.9","","7.3","","96","","27","","9","","19.3","","102.13","","","","","","NA"
"2015-01-27 21:00","2015","01","27","21:00","","8.1","","7.4","","95","","28","","13","","16.1","","102.22","","","","","","NA"
"2015-01-27 22:00","2015","01","27","22:00","","8.0","","7.4","","96","","27","","8","","16.1","","102.31","","","","","","Cloudy"
"2015-01-27 23:00","2015","01","27","23:00","","6.4","","5.8","","96","","27","","6","","24.1","","102.39","","","","","","NA"
"2015-01-28 00:00","2015","01","28","00:00","","6.4","","6.0","","97","","24","","8","","24.1","","102.45","","","","","","NA"
"2015-01-28 01:00","2015","01","28","01:00","","6.7","","6.0","","95","","22","","7","","24.1","","102.50","","","","","","Mostly Cloudy"
"2015-01-28 02:00","2015","01","28","02:00","","6.7","","6.0","","95","","15","","5","","24.1","","102.56","","","","","","NA"
"2015-01-28 03:00","2015","01","28","03:00","","6.0","","5.3","","95","","14","","9","","24.1","","102.62","","","","","","NA"
"2015-01-28 04:00","2015","01","28","04:00","","6.6","","5.9","","95","","13","","8","","24.1","","102.68","","","","","","Mostly Cloudy"
"2015-01-28 05:00","2015","01","28","05:00","","5.3","","4.4","","94","","10","","4","","24.1","","102.72","","","","","","NA"
"2015-01-28 06:00","2015","01","28","06:00","","5.1","","4.5","","96","","11","","6","","24.1","","102.76","","","","","","NA"
"2015-01-28 07:00","2015","01","28","07:00","","5.6","","5.0","","96","","8","","6","","24.1","","102.81","","","","","","Cloudy"
"2015-01-28 08:00","2015","01","28","08:00","","6.9","","6.2","","95","","9","","4","","24.1","","102.85","","","","","","NA"
"2015-01-28 09:00","2015","01","28","09:00","","7.0","","6.3","","95","","14","","8","","24.1","","102.89","","","","","","NA"
"2015-01-28 10:00","2015","01","28","10:00","","8.4","","6.9","","90","","12","","4","","24.1","","102.94","","","","","","Cloudy"
"2015-01-28 11:00","2015","01","28","11:00","","8.4","","7.2","","92","","23","","5","","24.1","","102.97","","","","","","NA"
"2015-01-28 12:00","2015","01","28","12:00","","8.0","","6.9","","93","","25","","6","","24.1","","102.96","","","","","","NA"
"2015-01-28 13:00","2015","01","28","13:00","","8.4","","6.9","","90","","30","","6","","24.1","","102.93","","","","","","Mostly Cloudy"
"2015-01-28 14:00","2015","01","28","14:00","","9.7","","7.5","","86","","33","","8","","32.2","","102.88","","","","","","NA"
"2015-01-28 15:00","2015","01","28","15:00","","9.3","","7.1","","86","","30","","12","","32.2","","102.84","","","","","","NA"
"2015-01-28 16:00","2015","01","28","16:00","","8.1","","6.6","","90","","28","","10","","48.3","","102.85","","","","","","Mainly Clear"
"2015-01-28 17:00","2015","01","28","17:00","","6.1","","5.5","","96","","32","","7","","48.3","","102.84","","","","","","NA"
"2015-01-28 18:00","2015","01","28","18:00","","4.2","","3.9","","98","","32","","12","","32.2","","102.85","","","","","","NA"
"2015-01-28 19:00","2015","01","28","19:00","","4.4","","4.1","","98","","33","","8","","32.2","","102.84","","","","","","Clear"
"2015-01-28 20:00","2015","01","28","20:00","","3.8","","3.4","","97","","35","","4","","32.2","","102.87","","","","","","NA"
"2015-01-28 21:00","2015","01","28","21:00","","4.6","","4.2","","97","","35","","4","","32.2","","102.89","","","","","","NA"
"2015-01-28 22:00","2015","01","28","22:00","","4.4","","3.8","","96","","11","","5","","32.2","","102.90","","","","","","Clear"
"2015-01-28 23:00","2015","01","28","23:00","","2.7","","1.1","","89","","5","","5","","32.2","","102.92","","","","","","NA"
"2015-01-29 00:00","2015","01","29","00:00","","3.3","","2.7","","96","","36","","2","","32.2","","102.93","","","","","","NA"
"2015-01-29 01:00","2015","01","29","01:00","","1.8","","1.2","","96","","36","","2","","32.2","","102.93","","","","","","Mainly Clear"
"2015-01-29 02:00","2015","01","29","02:00","","1.9","","1.3","","96","","35","","4","","32.2","","102.93","","","","","","NA"
"2015-01-29 03:00","2015","01","29","03:00","","3.5","","3.1","","97","","36","","1","","32.2","","102.96","","","","","","NA"
"2015-01-29 04:00","2015","01","29","04:00","","3.7","","3.1","","96","","36","","2","","32.2","","102.93","","","","","","Mostly Cloudy"
"2015-01-29 05:00","2015","01","29","05:00","","2.4","","1.5","","94","","33","","3","","32.2","","102.91","","","","","","NA"
"2015-01-29 06:00","2015","01","29","06:00","","2.6","","2.0","","96","","1","","7","","32.2","","102.88","","","","","","NA"
"2015-01-29 07:00","2015","01","29","07:00","","2.8","","2.1","","95","","8","","13","","32.2","","102.87","","","","","","Mainly Clear"
"2015-01-29 08:00","2015","01","29","08:00","","2.2","","1.8","","97","","3","","8","","48.3","","102.87","","","","","","NA"
"2015-01-29 09:00","2015","01","29","09:00","","3.4","","2.7","","95","","20","","4","","48.3","","102.91","","","","","","NA"
"2015-01-29 10:00","2015","01","29","10:00","","6.0","","4.8","","92","","29","","7","","48.3","","102.93","","","","","","Cloudy"
"2015-01-29 11:00","2015","01","29","11:00","","7.1","","5.9","","92","","30","","12","","48.3","","102.91","","","","","","NA"
"2015-01-29 12:00","2015","01","29","12:00","","8.4","","5.4","","81","","29","","20","","48.3","","102.84","","","","","","NA"
"2015-01-29 13:00","2015","01","29","13:00","","8.4","","6.4","","87","","28","","16","","48.3","","102.78","","","","","","Mainly Clear"
"2015-01-29 14:00","2015","01","29","14:00","","8.3","","6.1","","86","","29","","14","","48.3","","102.73","","","","","","NA"
"2015-01-29 15:00","2015","01","29","15:00","","8.1","","6.6","","90","","30","","19","","48.3","","102.72","","","","","","NA"
"2015-01-29 16:00","2015","01","29","16:00","","7.6","","6.2","","91","","31","","14","","48.3","","102.68","","","","","","Mainly Clear"
"2015-01-29 17:00","2015","01","29","17:00","","5.7","","5.0","","95","","31","","11","","48.3","","102.67","","","","","","NA"
"2015-01-29 18:00","2015","01","29","18:00","","5.3","","4.9","","97","","30","","7","","48.3","","102.66","","","","","","NA"
"2015-01-29 19:00","2015","01","29","19:00","","4.5","","4.2","","98","","29","","5","","48.3","","102.67","","","","","","Mainly Clear"
"2015-01-29 20:00","2015","01","29","20:00","","2.6","","2.3","","98","","31","","7","","48.3","","102.68","","","","","","NA"
"2015-01-29 21:00","2015","01","29","21:00","","4.6","","4.2","","97","","36","","1","","32.2","","102.67","","","","","","NA"
"2015-01-29 22:00","2015","01","29","22:00","","2.5","","1.9","","96","","36","","2","","32.2","","102.67","","","","","","Mainly Clear"
"2015-01-29 23:00","2015","01","29","23:00","","2.3","","1.9","","97","","35","","7","","32.2","","102.68","","","","","","NA"
"2015-01-30 00:00","2015","01","30","00:00","","2.5","","1.8","","95","","36","","2","","32.2","","102.68","","","","","","NA"
"2015-01-30 01:00","2015","01","30","01:00","","4.4","","4.0","","97","","","","0","","32.2","","102.69","","","","","","Mainly Clear"
"2015-01-30 02:00","2015","01","30","02:00","","1.6","","1.0","","96","","11","","9","","32.2","","102.68","","","","","","NA"
"2015-01-30 03:00","2015","01","30","03:00","","2.1","","1.5","","96","","9","","9","","32.2","","102.68","","","","","","NA"
"2015-01-30 04:00","2015","01","30","04:00","","1.2","","0.8","","97","","10","","9","","32.2","","102.66","","","","","","Mainly Clear"
"2015-01-30 05:00","2015","01","30","05:00","","0.7","","0.4","","98","","10","","9","","32.2","","102.66","","","","","","NA"
"2015-01-30 06:00","2015","01","30","06:00","","1.6","","1.3","","98","","9","","6","","32.2","","102.64","","","","","","NA"
"2015-01-30 07:00","2015","01","30","07:00","","0.8","","0.5","","98","","8","","4","","32.2","","102.65","","","","","","Mainly Clear"
"2015-01-30 08:00","2015","01","30","08:00","","1.8","","1.4","","97","","12","","10","","48.3","","102.63","","","","","","NA"
"2015-01-30 09:00","2015","01","30","09:00","","2.3","","1.7","","96","","9","","9","","48.3","","102.65","","","","","","NA"
"2015-01-30 10:00","2015","01","30","10:00","","5.6","","3.6","","87","","9","","4","","48.3","","102.69","","","","","","Clear"
"2015-01-30 11:00","2015","01","30","11:00","","5.3","","3.8","","90","","26","","10","","48.3","","102.67","","","","","","NA"
"2015-01-30 12:00","2015","01","30","12:00","","5.7","","4.5","","92","","24","","6","","48.3","","102.62","","","","","","NA"
"2015-01-30 13:00","2015","01","30","13:00","","7.0","","4.7","","85","","21","","8","","48.3","","102.56","","","","","","Mainly Clear"
"2015-01-30 14:00","2015","01","30","14:00","","5.9","","4.9","","93","","26","","12","","48.3","","102.55","","","","","","NA"
"2015-01-30 15:00","2015","01","30","15:00","","4.5","","4.2","","98","","23","","8","","0.4","","102.52","","","","","","Fog"
"2015-01-30 16:00","2015","01","30","16:00","","4.1","","3.8","","98","","27","","5","","0.2","","102.49","","","","","","Fog"
"2015-01-30 17:00","2015","01","30","17:00","","4.7","","4.6","","99","","32","","8","","0.8","","102.51","","","","","","Fog"
"2015-01-30 18:00","2015","01","30","18:00","","4.9","","4.8","","99","","27","","17","","19.3","","102.48","","","","","","NA"
"2015-01-30 19:00","2015","01","30","19:00","","5.5","","5.4","","99","","27","","15","","16.1","","102.45","","","","","","Cloudy"
"2015-01-30 20:00","2015","01","30","20:00","","5.4","","5.3","","99","","27","","18","","12.9","","102.45","","","","","","NA"
"2015-01-30 21:00","2015","01","30","21:00","","5.6","","5.5","","99","","27","","15","","16.1","","102.44","","","","","","NA"
"2015-01-30 22:00","2015","01","30","22:00","","5.7","","5.4","","98","","26","","8","","16.1","","102.43","","","","","","Cloudy"
"2015-01-30 23:00","2015","01","30","23:00","","5.7","","5.4","","98","","23","","7","","16.1","","102.46","","","","","","NA"
"2015-01-31 00:00","2015","01","31","00:00","","5.3","","4.9","","97","","8","","10","","6.4","","102.47","","","","","","Fog"
"2015-01-31 01:00","2015","01","31","01:00","","5.4","","5.1","","98","","7","","7","","4.8","","102.48","","","","","","Fog"
"2015-01-31 02:00","2015","01","31","02:00","","5.2","","4.9","","98","","6","","9","","3.2","","102.51","","","","","","Fog"
"2015-01-31 03:00","2015","01","31","03:00","","4.8","","4.5","","98","","8","","11","","3.2","","102.49","","","","","","Fog"
"2015-01-31 04:00","2015","01","31","04:00","","4.4","","4.1","","98","","5","","9","","2.4","","102.49","","","","","","Fog"
"2015-01-31 05:00","2015","01","31","05:00","","3.9","","3.6","","98","","9","","8","","1.6","","102.52","","","","","","Fog"
"2015-01-31 06:00","2015","01","31","06:00","","3.7","","3.6","","99","","9","","8","","1.6","","102.47","","","","","","Fog"
"2015-01-31 07:00","2015","01","31","07:00","","3.6","","3.5","","99","","27","","5","","1.6","","102.47","","","","","","Fog"
"2015-01-31 08:00","2015","01","31","08:00","","4.0","","3.9","","99","","27","","8","","0.8","","102.52","","","","","","Fog"
"2015-01-31 09:00","2015","01","31","09:00","","4.0","","3.9","","99","","32","","8","","0.8","","102.49","","","","","","Fog"
"2015-01-31 10:00","2015","01","31","10:00","","4.2","","4.1","","99","","32","","5","","3.2","","102.50","","","","","","Fog"
"2015-01-31 11:00","2015","01","31","11:00","","4.7","","4.6","","99","","28","","6","","2.4","","102.50","","","","","","Fog"
"2015-01-31 12:00","2015","01","31","12:00","","5.3","","5.0","","98","","30","","7","","12.9","","102.43","","","","","","NA"
"2015-01-31 13:00","2015","01","31","13:00","","5.9","","4.9","","93","","26","","9","","16.1","","102.33","","","","","","Mostly Cloudy"
"2015-01-31 14:00","2015","01","31","14:00","","6.3","","5.3","","93","","29","","7","","19.3","","102.26","","","","","","NA"
"2015-01-31 15:00","2015","01","31","15:00","","6.2","","5.2","","93","","28","","11","","24.1","","102.23","","","","","","NA"
"2015-01-31 16:00","2015","01","31","16:00","","6.2","","5.2","","93","","29","","12","","19.3","","102.23","","","","","","Cloudy"
"2015-01-31 17:00","2015","01","31","17:00","","6.0","","5.1","","94","","31","","15","","24.1","","102.21","","","","","","NA"
"2015-01-31 18:00","2015","01","31","18:00","","6.0","","5.4","","96","","28","","12","","19.3","","102.23","","","","","","NA"
"2015-01-31 19:00","2015","01","31","19:00","","6.1","","5.5","","96","","32","","10","","24.1","","102.15","","","","","","Cloudy"
"2015-01-31 20:00","2015","01","31","20:00","","5.8","","5.2","","96","","1","","4","","24.1","","102.11","","","","","","NA"
"2015-01-31 21:00","2015","01","31","21:00","","5.7","","5.0","","95","","24","","8","","24.1","","102.10","","","","","","NA"
"2015-01-31 22:00","2015","01","31","22:00","","5.9","","5.5","","97","","1","","5","","24.1","","102.05","","","","","","Cloudy"
"2015-01-31 23:00","2015","01","31","23:00","","6.4","","5.4","","93","","36","","1","","24.1","","102.01","","","","","","Rain"
